Parcel_ID,LotSize,PropertyType,ZipCode,Neighborhood,Potential Use,StreetNum,StreetName,StreetSuffix,Address,Location
1903964002,38013,,02131,Roslindale,,,SEYMOUR,ST,SEYMOUR ST,"(42.2796813950074, -71.1230434885066)"
1402838000,5166,,02124,Mattapan,,,CALLENDER,ST,CALLENDER ST,"(42.2892766443043, -71.0799505996245)"
1402836000,4072,,02124,Mattapan,,,CALLENDER,ST,CALLENDER ST,"(42.2893714242351, -71.0795203380473)"
1403074000,4620,,02124,Mattapan,,26,LYFORD,ST,26 LYFORD ST,"(42.2885486450961, -71.0839173081078)"
1403509000,4435,,02124,Mattapan,,,LUCERNE,ST,LUCERNE ST,"(42.2856406436437, -71.0886453594924)"
0802698000,2531,,02119,Roxbury,,22 24,VINE,ST,22 24 VINE ST,"(42.3265620915537, -71.0770563056956)"
1401251000,15374,,02121,Dorchester,,,MT BOWDOIN,TE,MT BOWDOIN TE,"(42.302868044287, -71.0753252086241)"
0601258000,8250,,02127,South Boston,,175 179,W FIRST,ST,175 179 W FIRST ST,"(42.3421117342172, -71.0512467212428)"
1701859000,5990,,02124,Dorchester,,50,PEACEVALE,RD,50 PEACEVALE RD,"(42.2864579823028, -71.0757163443572)"
1700347000,2188,,02124,Dorchester,,,NORWELL,ST,NORWELL ST,"(42.294155051368, -71.0776046770716)"
1700330000,5500,,02124,Dorchester,,115,WHEATLAND,AV,115 WHEATLAND AV,"(42.2927128063312, -71.0778838188047)"
1402948000,3449,,02124,Mattapan,,,TUCKER,ST,TUCKER ST,"(42.2888614706602, -71.0796676559339)"
1300988000,4486,,02125,Roxbury,,4,CHAMBLET,ST,4 CHAMBLET ST,"(42.3154817195095, -71.0716651996267)"
1301038000,5183,,02125,Roxbury,,7,HALF MOON,ST,7 HALF MOON ST,"(42.3164601820106, -71.0716866340119)"
1300252000,2582,,02125,Roxbury,,21,MAGNOLIA,ST,21 MAGNOLIA ST,"(42.3182691598698, -71.0702045209514)"
1402949000,5798,,02124,Mattapan,,10 12,TUCKER,ST,10 12 TUCKER ST,"(42.288692253722, -71.0798122739774)"
0802977000,2510,,02119,Roxbury,,31,WOODVILLE,ST,31 WOODVILLE ST,"(42.3216163786489, -71.0764864690672)"
0802978000,2444,,02119,Roxbury,,33,WOODVILLE,ST,33 WOODVILLE ST,"(42.3216083715451, -71.0765889529785)"
1301178000,4341,,02125,Roxbury,,,MAGNOLIA,ST,MAGNOLIA ST,"(42.3132299390028, -71.0721540826576)"
1801054000,56913,,02126,Mattapan,Commercial,30 32,REGIS,RD,30 32 REGIS RD,"(42.270825227051, -71.0961401414897)"
1801058000,40166,,02126,Mattapan,Commercial,820,CUMMINS,HW,820 CUMMINS HW,"(42.2700625998026, -71.0970283279534)"
1801091000,10366,,02126,Mattapan,,,CUMMINS,HW,CUMMINS HW,"(42.2696318910354, -71.0965730718582)"
1801092000,6250,,02126,Mattapan,,,REGIS,RD,REGIS RD,"(42.2697857622949, -71.0963354762744)"
1300254000,1068,,02125,Roxbury,,,MAGNOLIA,ST,MAGNOLIA ST,"(42.3182098573545, -71.070389100703)"
1301182000,6250,,02125,Roxbury,,7 9,CEYLON,ST,7 9 CEYLON ST,"(42.3128542977354, -71.0717226070751)"
1301196000,4256,,02125,Roxbury,,170,MAGNOLIA,ST,170 MAGNOLIA ST,"(42.3129065256682, -71.0723257917715)"
1300263000,2212,,02125,Roxbury,,8,WOODFORD,ST,8 WOODFORD ST,"(42.3183135282834, -71.0703904590225)"
1800041000,42120,,02126,Mattapan,,150,RIVER,ST,150 RIVER ST,"(42.2711902292781, -71.0777804797707)"
1403071001,2935,,02124,Mattapan,,123,STRATTON,ST,123 STRATTON ST,"(42.2885511282903, -71.0842418173539)"
1403072000,3096,,02124,Mattapan,,127,STRATTON,ST,127 STRATTON ST,"(42.2885691818817, -71.0841124107328)"
1403073000,856,,02124,Mattapan,,,STRATTON,ST,STRATTON ST,"(42.2886699894475, -71.0839759084297)"
1402836001,4080,,02124,Mattapan,,,CALLENDER,ST,CALLENDER ST,"(42.2893401032499, -71.079661812819)"
1402837000,4106,,02124,Mattapan,,25 27,CALLENDER,ST,25 27 CALLENDER ST,"(42.2893069511646, -71.0797990875344)"
1402835000,4064,,02124,Mattapan,,,CALLENDER,ST,CALLENDER ST,"(42.2894044603664, -71.079372107989)"
1300253000,2700,,02125,Roxbury,,23,MAGNOLIA,ST,23 MAGNOLIA ST,"(42.318155172006, -71.0702626152925)"
1301154000,3600,,02125,Roxbury,,,MAGNOLIA,ST,MAGNOLIA ST,"(42.3151415556601, -71.0711400544478)"
1301155000,7200,,02125,Roxbury,,98,MAGNOLIA,ST,98 MAGNOLIA ST,"(42.3152560847863, -71.0710883799889)"
1403081000,10400,,02124,Mattapan,,114 118,FLOYD,ST,114 118 FLOYD ST,"(42.2882773250534, -71.0848364433325)"
1403188000,4900,,02124,Mattapan,,17 19,ASHTON,ST,17 19 ASHTON ST,"(42.2881679543651, -71.0891920134052)"
1403213000,5747,,02124,Mattapan,,12,ASHTON,ST,12 ASHTON ST,"(42.2881569509295, -71.0887231396115)"
1403100000,4196,,02124,Mattapan,,17,STRATTON,ST,17 STRATTON ST,"(42.290361332046, -71.088609171239)"
1403101000,4197,,02124,Mattapan,,19,STRATTON,ST,19 STRATTON ST,"(42.2902720680942, -71.0885257433861)"
1403102000,4210,,02124,Mattapan,,21,STRATTON,ST,21 STRATTON ST,"(42.2901846256303, -71.0884405758605)"
1403111000,4863,,02124,Mattapan,,49,STRATTON,ST,49 STRATTON ST,"(42.2894158635958, -71.0874130184147)"
1403038000,6000,,02124,Mattapan,,126,CALLENDER,ST,126 CALLENDER ST,"(42.2879523540003, -71.0838903146459)"
1403039000,7200,,02124,Mattapan,,124,CALLENDER,ST,124 CALLENDER ST,"(42.2879973453047, -71.0836961963908)"
1403068000,6300,,02124,Mattapan,,105 107,STRATTON,ST,105 107 STRATTON ST,"(42.2885618905362, -71.0848667008717)"
1300149000,2438,,02125,Roxbury,,27,FOLSOM,ST,27 FOLSOM ST,"(42.3184105299893, -71.072113868254)"
0301331000,760,,02113,Central,,,NOYES,PL,NOYES PL,"(42.3649630696944, -71.0558623611333)"
1002461000,1411,,02130,Jamaica Plain,,21,BROMLEY,ST,21 BROMLEY ST,"(42.3258513571372, -71.0996826641318)"
1002467000,6987,,02130,Jamaica Plain,,908,PARKER,ST,908 PARKER ST,"(42.3259910435152, -71.1000042607698)"
1002468000,3834,,02130,Jamaica Plain,,894 900,PARKER,ST,894 900 PARKER ST,"(42.3262138783467, -71.0999927959006)"
1002469000,3092,,02130,Jamaica Plain,,62,NEW HEATH,ST,62 NEW HEATH ST,"(42.3261666932814, -71.0998528282918)"
1002470000,1352,,02130,Jamaica Plain,,60,NEW HEATH,ST,60 NEW HEATH ST,"(42.3262318881479, -71.0997625900837)"
1002471000,1763,,02130,Jamaica Plain,,58,NEW HEATH,ST,58 NEW HEATH ST,"(42.3262256092987, -71.0996617338902)"
1002459000,2560,,02130,Jamaica Plain,,13 17,BROMLEY,ST,13 17 BROMLEY ST,"(42.3260123527021, -71.0996608762865)"
1002460000,2400,,02130,Jamaica Plain,,19,BROMLEY,ST,19 BROMLEY ST,"(42.3259315331297, -71.0996972031812)"
0802697000,1527,,02119,Roxbury,,26,VINE,ST,26 VINE ST,"(42.326496276412, -71.0771501352971)"
0802775000,4425,,02119,Roxbury,,38 40,VINE,ST,38 40 VINE ST,"(42.3261430082607, -71.0775526366192)"
0802776000,6075,,02119,Roxbury,,30 34,VINE,ST,30 34 VINE ST,"(42.3262850089142, -71.0773702886088)"
0802572000,9960,,02119,Roxbury,,21,MT PLEASANT,AV,21 MT PLEASANT AV,"(42.3276005800583, -71.0798065595662)"
0802638001,4228,,02119,Roxbury,,24 -26,FOREST,ST,24 -26 FOREST ST,"(42.327314172659, -71.0781568642878)"
0802684000,7174,,02119,Roxbury,,72,MT PLEASANT,AV,72 MT PLEASANT AV,"(42.3262808280224, -71.0782909558684)"
1002458000,2515,,02130,Jamaica Plain,,9 11,BROMLEY,ST,9 11 BROMLEY ST,"(42.3260952500915, -71.0996167180322)"
1002457000,2958,,02130,Jamaica Plain,,,NEW HEATH,ST,NEW HEATH ST,"(42.3262147521858, -71.0995079306271)"
1300148000,2540,,02125,Roxbury,,25,FOLSOM,ST,25 FOLSOM ST,"(42.318490499636, -71.0720273491531)"
1702073000,4665,,02124,Mattapan,,48,CAPEN,ST,48 CAPEN ST,"(42.282810607417, -71.0801738356719)"
1702044000,5033,,02124,Mattapan,,16,DYER,ST,16 DYER ST,"(42.2835435712223, -71.0798439219733)"
1702067000,4272,,02124,Mattapan,,15,DYER,ST,15 DYER ST,"(42.2830530211548, -71.0799798285748)"
1402602000,5000,,02121,Roxbury,,12,ROXTON,ST,12 ROXTON ST,"(42.2984512853278, -71.0804269650843)"
1402605000,5500,,02121,Roxbury,,166 168,GLENWAY,ST,166 168 GLENWAY ST,"(42.297659408525, -71.0806471105512)"
1701987000,6327,,02124,Mattapan,,63,THETFORD,AV,63 THETFORD AV,"(42.2842235633043, -71.078491639647)"
1401250000,4946,,02121,Dorchester,,41 39,MT BOWDOIN,TE,41 39 MT BOWDOIN TE,"(42.3031079348515, -71.0755707769055)"
1403080000,5001,,02124,Mattapan,,137,CALLENDER,ST,137 CALLENDER ST,"(42.2882606571999, -71.0845585357221)"
0600287000,1955,,02127,South Boston,,210 212,W BROADWAY,,210 212 W BROADWAY,"(42.3402125978755, -71.0525451798928)"
1403079000,4500,,02124,Mattapan,,133,CALLENDER,ST,133 CALLENDER ST,"(42.2882563984801, -71.0843937050424)"
0600288000,2028,,02127,South Boston,,206 208,W BROADWAY,,206 208 W BROADWAY,"(42.3402546502684, -71.0526104394108)"
1701994000,7911,,02124,Mattapan,,85 91,THETFORD,AV,85 91 THETFORD AV,"(42.2835368092646, -71.0780225912114)"
1402642000,5360,,02121,Roxbury,,141,GLENWAY,ST,141 GLENWAY ST,"(42.2984054046735, -71.0815174709101)"
1702042000,4796,,02124,Mattapan,,20 22,DYER,ST,20 22 DYER ST,"(42.2832381155839, -71.0795642248846)"
1702043000,7119,,02124,Mattapan,,18,DYER,ST,18 DYER ST,"(42.2833734222093, -71.0796976226322)"
1702041000,4054,,02124,Mattapan,,26 28,DYER,ST,26 28 DYER ST,"(42.2831219463484, -71.0794751761211)"
1702068000,4332,,02124,Mattapan,,17,DYER,ST,17 DYER ST,"(42.2829345661459, -71.0798873654006)"
1703964000,1960,,02126,Mattapan,,,PAULA,RD,PAULA RD,"(42.2755062780366, -71.0761036331657)"
1703965000,4390,,02126,Mattapan,,,PAULA,RD,PAULA RD,"(42.2755936380241, -71.0760478992394)"
1703966000,3710,,02126,Mattapan,,,PAULA,RD,PAULA RD,"(42.2757209958809, -71.076005012121)"
1703967000,4015,,02126,Mattapan,,,PAULA,RD,PAULA RD,"(42.2758366853102, -71.0759485153782)"
1401458000,2630,,02121,Dorchester,,8,ARVALE,RD,8 ARVALE RD,"(42.2997537294663, -71.0747109117534)"
0902432000,11328,,02119,Roxbury,,2159 2163,WASHINGTON,ST,2159 2163 WASHINGTON ST,"(42.3317512606368, -71.0825816409251)"
0703267005,711,,02125,Dorchester,,,WASHBURN,ST,WASHBURN ST,"(42.32528343351, -71.0572076733451)"
1302396000,2258,,02125,Dorchester,,,SEA VIEW,TE,SEA VIEW TE,"(42.3134031514447, -71.0502013285871)"
0703999010,2317,,02125,Dorchester,Commercial,611,COLUMBIA,RD,611 COLUMBIA RD,"(42.3174758204472, -71.0640195819818)"
1403452000,4669,,02124,Mattapan,,22,HILDRETH,ST,22 HILDRETH ST,"(42.2829136752351, -71.0869094278991)"
1403453000,4614,,02124,Mattapan,,18,HILDRETH,ST,18 HILDRETH ST,"(42.2830598141276, -71.0869632143838)"
1401424000,4320,,02121,Dorchester,,154,ROSSETER,ST,154 ROSSETER ST,"(42.3003458650544, -71.0726971797713)"
1403482000,6000,,02124,Mattapan,,20,THEODORE,ST,20 THEODORE ST,"(42.2840790448997, -71.0877201776216)"
1403595000,4573,,02124,Mattapan,,98,WILLOWWOOD,ST,98 WILLOWWOOD ST,"(42.2831987600538, -71.0853322897897)"
1401261000,4897,,02121,Dorchester,,29,ROSSETER,ST,29 ROSSETER ST,"(42.3039850811143, -71.0759707745059)"
1401283000,6722,,02121,Dorchester,,24,MT BOWDOIN,TE,24 MT BOWDOIN TE,"(42.3036160409012, -71.0756697925192)"
1401285000,8477,,02121,Dorchester,,20,MT BOWDOIN,TE,20 MT BOWDOIN TE,"(42.303765037101, -71.0761136129223)"
1401230000,5334,,02121,Dorchester,,27,MALLON,RD,27 MALLON RD,"(42.3025201959865, -71.0750282622873)"
1300630000,10276,,02125,Roxbury,,,SARGENT,ST,SARGENT ST,"(42.3151103337945, -71.0745418040831)"
2011095000,2450,,02132,West Roxbury,,,WALNUT,RD,WALNUT RD,"(42.2640326198284, -71.161114496469)"
2011096000,2505,,02132,West Roxbury,,,WALNUT,RD,WALNUT RD,"(42.2641396644938, -71.1610870281763)"
2011097000,3961,,02132,West Roxbury,,,WALNUT,RD,WALNUT RD,"(42.2642801529375, -71.1610485990143)"
2011098000,1638,,02132,West Roxbury,,,WALNUT,RD,WALNUT RD,"(42.2644058095322, -71.1610101339527)"
2011102000,2980,,02132,West Roxbury,,,CHERRY,RD,CHERRY RD,"(42.2645178764966, -71.1603356757687)"
2011106000,2791,,02132,West Roxbury,,,CEDAR,RD,CEDAR RD,"(42.2641286092957, -71.1603223733583)"
2011107000,1292,,02132,West Roxbury,,,CEDAR,RD,CEDAR RD,"(42.2640459053081, -71.1603753244309)"
2011108000,2509,,02132,West Roxbury,,,CEDAR,RD,CEDAR RD,"(42.2639711016519, -71.1604317550423)"
2011109000,2310,,02132,West Roxbury,,,CEDAR,RD,CEDAR RD,"(42.2638618167678, -71.1604735116485)"
2011110000,3107,,02132,West Roxbury,,,CEDAR,RD,CEDAR RD,"(42.2637255640937, -71.1605003893944)"
2011113000,2974,,02132,West Roxbury,,,CHERRY,RD,CHERRY RD,"(42.263951341524, -71.1606366849771)"
2011114000,3622,,02132,West Roxbury,,,CHERRY,RD,CHERRY RD,"(42.2641106850336, -71.160581514027)"
2011119000,2144,,02132,West Roxbury,,,CHESTNUT,RD,CHESTNUT RD,"(42.264232493252, -71.1599461640655)"
2011120000,3000,,02132,West Roxbury,,,CHESTNUT,RD,CHESTNUT RD,"(42.2641289114864, -71.1598253293668)"
2011121000,2000,,02132,West Roxbury,,,CHESTNUT,RD,CHESTNUT RD,"(42.2640278163143, -71.1597009122742)"
1701880000,3601,,02124,Dorchester,,19,EDSON,ST,19 EDSON ST,"(42.286877962977, -71.0781467598881)"
1401103000,34415,,02121,Roxbury,,,RONALD,ST,RONALD ST,"(42.3048748028819, -71.0778528680514)"
0601265000,8250,,02127,South Boston,Industrial,174,W SECOND,ST,174 W SECOND ST,"(42.3418863552115, -71.051516009008)"
1701701000,4002,,02124,Dorchester,,53,WENTWORTH,ST,53 WENTWORTH ST,"(42.2866861630198, -71.0752913983781)"
1701820000,4770,,02124,Dorchester,,15,WHITMAN,ST,15 WHITMAN ST,"(42.2869208746247, -71.0772764158846)"
2011123000,3361,,02132,West Roxbury,,,CHESTNUT,RD,CHESTNUT RD,"(42.2638000106847, -71.1594243124255)"
2011124000,1830,,02132,West Roxbury,,,POND,RD,POND RD,"(42.2636542508159, -71.1594982815075)"
2011125000,2000,,02132,West Roxbury,,,POND,RD,POND RD,"(42.2637338674694, -71.1595879531661)"
2011126000,1000,,02132,West Roxbury,,,POND,RD,POND RD,"(42.263794973347, -71.1596622221586)"
2011127000,2000,,02132,West Roxbury,,,POND,RD,POND RD,"(42.26385608212, -71.1597364832008)"
2011128000,1000,,02132,West Roxbury,,,POND,RD,POND RD,"(42.2639171890008, -71.1598107465215)"
2011131000,2433,,02132,West Roxbury,,,POND,RD,POND RD,"(42.2641086878793, -71.1600367199499)"
2011134000,3783,,02132,West Roxbury,,,OAK,RD,OAK RD,"(42.2630803986071, -71.1600500969085)"
2011135000,2061,,02132,West Roxbury,,,OAK,RD,OAK RD,"(42.2629455468233, -71.1601178700306)"
2011136000,787,,02132,West Roxbury,,,OAK,RD,OAK RD,"(42.2628625849031, -71.1601618169371)"
2011142000,2659,,02132,West Roxbury,,,DANA,RD,DANA RD,"(42.2624927178539, -71.1602415837064)"
2011143000,1029,,02132,West Roxbury,,,DANA,RD,DANA RD,"(42.2625167211244, -71.1603807147246)"
2011144000,4098,,02132,West Roxbury,,,PINE,RD,PINE RD,"(42.2626470816583, -71.1603103360133)"
2011145000,1541,,02132,West Roxbury,,,PINE,RD,PINE RD,"(42.2627990279855, -71.1603162019799)"
2011146000,2849,,02132,West Roxbury,,,PINE,RD,PINE RD,"(42.2629446112789, -71.1602829276822)"
2011147000,2404,,02132,West Roxbury,,,PINE,RD,PINE RD,"(42.263085263244, -71.1602716385889)"
2011148000,2908,,02132,West Roxbury,,,PINE,RD,PINE RD,"(42.2631937940457, -71.1602626416073)"
2011149000,3412,,02132,West Roxbury,,,PINE,RD,PINE RD,"(42.2633075628122, -71.1602571963617)"
2011150000,2306,,02132,West Roxbury,,,PINE,RD,PINE RD,"(42.2634158530981, -71.1602773032644)"
2011151000,4849,,02132,West Roxbury,,,PINE,RD,PINE RD,"(42.2635554695505, -71.1603067576586)"
2011152000,2415,,02132,West Roxbury,,,CEDAR,RD,CEDAR RD,"(42.2637071841358, -71.1602420315473)"
2011153000,1170,,02132,West Roxbury,,,CEDAR,RD,CEDAR RD,"(42.2637884028496, -71.1602219016739)"
2010886000,1560,,02132,West Roxbury,,,MAPLE,ST,MAPLE ST,"(42.2655069311625, -71.162280013764)"
2010887000,1380,,02132,West Roxbury,,,DANA,RD,DANA RD,"(42.2654551617235, -71.1622787661955)"
2010891000,1310,,02132,West Roxbury,,,DANA,RD,DANA RD,"(42.2652443840191, -71.1622794993839)"
2010892000,1292,,02132,West Roxbury,,,DANA,RD,DANA RD,"(42.2651797714509, -71.1622809258721)"
2010893000,1275,,02132,West Roxbury,,,DANA,RD,DANA RD,"(42.2651189835801, -71.1622808336989)"
2010894000,3719,,02132,West Roxbury,,,DANA,RD,DANA RD,"(42.265043992255, -71.1622871848099)"
2010895000,1205,,02132,West Roxbury,,,DANA,RD,DANA RD,"(42.2649633949195, -71.1622889984304)"
2010896000,1188,,02132,West Roxbury,,,DANA,RD,DANA RD,"(42.2649035156184, -71.1622901509427)"
2010897000,2323,,02132,West Roxbury,,,DANA,RD,DANA RD,"(42.2648156858042, -71.1622955208606)"
2010898000,1135,,02132,West Roxbury,,,DANA,RD,DANA RD,"(42.2647278686492, -71.1622975503532)"
2010899000,1118,,02132,West Roxbury,,,DANA,RD,DANA RD,"(42.2646692722109, -71.1622994529451)"
2010900000,2183,,02132,West Roxbury,,,DANA,RD,DANA RD,"(42.264583219558, -71.16230185465)"
2010901000,1128,,02132,West Roxbury,,,DANA,RD,DANA RD,"(42.264499285776, -71.1623053072726)"
2010902000,1210,,02132,West Roxbury,,,DANA,RD,DANA RD,"(42.2644407461816, -71.1623144478287)"
2010903000,2687,,02132,West Roxbury,,,DANA,RD,DANA RD,"(42.2643549940668, -71.1623324579166)"
2010904000,3043,,02132,West Roxbury,,,DANA,RD,DANA RD,"(42.2642471184379, -71.1623534989542)"
2010905000,3354,,02132,West Roxbury,,,DANA,RD,DANA RD,"(42.2641279080129, -71.1623759700053)"
2010906000,2606,,02132,West Roxbury,,,DANA,RD,DANA RD,"(42.2639998268367, -71.1623083558638)"
2010907000,2252,,02132,West Roxbury,,,DANA,RD,DANA RD,"(42.2639026856028, -71.162175823597)"
2010908000,3107,,02132,West Roxbury,,,DANA,RD,DANA RD,"(42.2638365089063, -71.1620540826016)"
2010910000,1879,,02132,West Roxbury,,,DANA,RD,DANA RD,"(42.2637488178476, -71.1619094225819)"
2010911000,1860,,02132,West Roxbury,,,DANA,RD,DANA RD,"(42.2637126467766, -71.1618611539713)"
2010912000,1842,,02132,West Roxbury,,,DANA,RD,DANA RD,"(42.2636663642951, -71.1618204947178)"
2010913000,1816,,02132,West Roxbury,,,DANA,RD,DANA RD,"(42.2636238567401, -71.1617744772553)"
2010914000,1783,,02132,West Roxbury,,,DANA,RD,DANA RD,"(42.2635797207215, -71.1617239371701)"
2010923000,1520,,02132,West Roxbury,,,DANA,RD,DANA RD,"(42.2629187775201, -71.1610515443288)"
2010924000,1081,,02132,West Roxbury,,,DANA,RD,DANA RD,"(42.2628529714248, -71.1610359725714)"
2010928000,856,,02132,West Roxbury,,,DANA,RD,DANA RD,"(42.262628112537, -71.160840857695)"
2010929000,794,,02132,West Roxbury,,,DANA,RD,DANA RD,"(42.2625708404132, -71.1607837980559)"
2010930000,691,,02132,West Roxbury,,,DANA,RD,DANA RD,"(42.2625109984225, -71.1607237213598)"
2010931000,680,,02132,West Roxbury,,,DANA,RD,DANA RD,"(42.2624622321595, -71.1606628479744)"
2010932000,910,,02132,West Roxbury,,,DANA,RD,DANA RD,"(42.2624400182807, -71.1606048401182)"
2010938000,1146,,02132,West Roxbury,,,DANA,RD,DANA RD,"(42.2622302180997, -71.1602324294594)"
2010939000,1209,,02132,West Roxbury,,,DANA,RD,DANA RD,"(42.2621970076177, -71.1601807846039)"
2010986000,1465,,02132,West Roxbury,,,LINDEN,RD,LINDEN RD,"(42.2651074812286, -71.1617012572623)"
2010991000,1366,,02132,West Roxbury,,,LINDEN,RD,LINDEN RD,"(42.2648345607055, -71.1617447846507)"
2010992000,1346,,02132,West Roxbury,,,LINDEN,RD,LINDEN RD,"(42.2647790747707, -71.1617519231555)"
2010993000,1326,,02132,West Roxbury,,,LINDEN,RD,LINDEN RD,"(42.2647229934489, -71.1617617436225)"
2010994000,1306,,02132,West Roxbury,,,LINDEN,RD,LINDEN RD,"(42.2646653879788, -71.1617696501612)"
2010995000,1286,,02132,West Roxbury,,,LINDEN,RD,LINDEN RD,"(42.2646109686233, -71.1617808083201)"
2011002000,2164,,02132,West Roxbury,,,LINDEN,RD,LINDEN RD,"(42.2640963024837, -71.161863805375)"
2011003000,2534,,02132,West Roxbury,,,LINDEN,RD,LINDEN RD,"(42.2639819619844, -71.1618786761887)"
2011004000,1660,,02132,West Roxbury,,,DANA,RD,DANA RD,"(42.2640182886509, -71.1620550504382)"
2011005000,1087,,02132,West Roxbury,,,DANA,RD,DANA RD,"(42.2640876031421, -71.1620550560895)"
2011006000,1107,,02132,West Roxbury,,,DANA,RD,DANA RD,"(42.2641406710156, -71.1620511316143)"
2011007000,1126,,02132,West Roxbury,,,DANA,RD,DANA RD,"(42.264194658351, -71.1620469170127)"
2011008000,1146,,02132,West Roxbury,,,DANA,RD,DANA RD,"(42.2642490597156, -71.1620405280857)"
2011009000,1166,,02132,West Roxbury,,,DANA,RD,DANA RD,"(42.2643034370052, -71.1620352803457)"
2011010000,1186,,02132,West Roxbury,,,DANA,RD,DANA RD,"(42.2643593076298, -71.1620312092967)"
2011012000,1226,,02132,West Roxbury,,,DANA,RD,DANA RD,"(42.2644711908014, -71.1620216837266)"
2011013000,1246,,02132,West Roxbury,,,DANA,RD,DANA RD,"(42.2645366505591, -71.162014867469)"
2011022000,2870,,02132,West Roxbury,,,DANA,RD,DANA RD,"(42.2650439962568, -71.1619684880139)"
2011033000,1455,,02132,West Roxbury,,,CHESTNUT,RD,CHESTNUT RD,"(42.265315378407, -71.1614307498874)"
2011034000,1368,,02132,West Roxbury,,,CHESTNUT,RD,CHESTNUT RD,"(42.2653049197174, -71.1613559958902)"
2011035000,2665,,02132,West Roxbury,,,CHESTNUT,RD,CHESTNUT RD,"(42.2652895192027, -71.1612391046317)"
2011036000,3567,,02132,West Roxbury,,,CHESTNUT,RD,CHESTNUT RD,"(42.2652533883336, -71.1610543750306)"
2011037000,3402,,02132,West Roxbury,,,CHESTNUT,RD,CHESTNUT RD,"(42.2651253997914, -71.1610522510232)"
2011038000,3280,,02132,West Roxbury,,,WALNUT,RD,WALNUT RD,"(42.265020835642, -71.1610894688368)"
2011039000,3152,,02132,West Roxbury,,,WALNUT,RD,WALNUT RD,"(42.264913917064, -71.1611265746739)"
2011040000,3024,,02132,West Roxbury,,,WALNUT,RD,WALNUT RD,"(42.2648036997864, -71.1611668618039)"
2011045000,1295,,02132,West Roxbury,,,WALNUT,RD,WALNUT RD,"(42.2644509000924, -71.1612894992448)"
1102369008,856,,02130,Roxbury,Residential Condo,52,MONTEBELLO,RD,52 MONTEBELLO RD,"(42.312348411005, -71.1006733388534)"
1102369010,856,,02130,Roxbury,Residential Condo,52,MONTEBELLO,RD,52 MONTEBELLO RD,"(42.312348411005, -71.1006733388534)"
1102369012,856,,02130,Roxbury,Residential Condo,52,MONTEBELLO,RD,52 MONTEBELLO RD,"(42.312348411005, -71.1006733388534)"
1102370000,5625,,02130,Roxbury,,,MONTEBELLO,RD,MONTEBELLO RD,"(42.3124197443578, -71.1008635085436)"
2011046000,1270,,02132,West Roxbury,,,WALNUT,RD,WALNUT RD,"(42.2643988745339, -71.1613016253273)"
2011047000,1247,,02132,West Roxbury,,,WALNUT,RD,WALNUT RD,"(42.2643482516146, -71.1613133370988)"
2011048000,1229,,02132,West Roxbury,,,WALNUT,RD,WALNUT RD,"(42.2642960355104, -71.1613254242417)"
2011055000,1161,,02132,West Roxbury,,,WALNUT,RD,WALNUT RD,"(42.2638139388251, -71.1614670949896)"
2011056000,1126,,02132,West Roxbury,,,WALNUT,RD,WALNUT RD,"(42.2637598476488, -71.1614811116598)"
2011063000,1200,,02132,West Roxbury,,,LINDEN,RD,LINDEN RD,"(42.2640979552088, -71.1615923897466)"
2011064000,1200,,02132,West Roxbury,,,LINDEN,RD,LINDEN RD,"(42.2641519100295, -71.1615799655894)"
2011066000,1200,,02132,West Roxbury,,,LINDEN,RD,LINDEN RD,"(42.2643147920255, -71.1615490130824)"
2011067000,1200,,02132,West Roxbury,,,LINDEN,RD,LINDEN RD,"(42.2643674634009, -71.1615388538322)"
2011068000,1200,,02132,West Roxbury,,,LINDEN,RD,LINDEN RD,"(42.2644195705505, -71.1615290701165)"
2011069000,1200,,02132,West Roxbury,,,LINDEN,RD,LINDEN RD,"(42.2644732762935, -71.1615177643672)"
2011070000,1218,,02132,West Roxbury,,,LINDEN,RD,LINDEN RD,"(42.2645271446928, -71.1615068007075)"
2011071000,1253,,02132,West Roxbury,,,LINDEN,RD,LINDEN RD,"(42.2645811899796, -71.1614928478442)"
2011072000,1288,,02132,West Roxbury,,,LINDEN,RD,LINDEN RD,"(42.2646398144368, -71.1614776150939)"
2011073000,1324,,02132,West Roxbury,,,LINDEN,RD,LINDEN RD,"(42.2646976109099, -71.161464317218)"
2011074000,1359,,02132,West Roxbury,,,BROOK FARM,RD,BROOK FARM RD,"(42.2647564453288, -71.1614489201706)"
2011075000,2825,,02132,West Roxbury,,,LINDEN,RD,LINDEN RD,"(42.2648384887289, -71.1614276370324)"
2011076000,2966,,02132,West Roxbury,,,LINDEN,RD,LINDEN RD,"(42.264940022347, -71.1614011045013)"
2011077000,3108,,02132,West Roxbury,,,LINDEN,RD,LINDEN RD,"(42.2650467090943, -71.161376028854)"
2011078000,3249,,02132,West Roxbury,,,LINDEN,RD,LINDEN RD,"(42.265152265144, -71.1613485200004)"
2011081000,1596,,02132,West Roxbury,,,CHESTNUT,RD,CHESTNUT RD,"(42.2646931554976, -71.160600334812)"
2011083000,2804,,02132,West Roxbury,,,CHERRY,RD,CHERRY RD,"(42.2645206863362, -71.160679473294)"
2011084000,2561,,02132,West Roxbury,,,CHERRY,RD,CHERRY RD,"(42.2644172849183, -71.1607633289638)"
2011086000,2320,,02132,West Roxbury,,,CHERRY,RD,CHERRY RD,"(42.2641692913342, -71.1608567061649)"
2011390000,3353,,02132,West Roxbury,,,COTTAGE,RD,COTTAGE RD,"(42.2628518867682, -71.1589330562449)"
2011391000,3457,,02132,West Roxbury,,,COTTAGE,RD,COTTAGE RD,"(42.2627710174076, -71.1590211780448)"
2011392000,3252,,02132,West Roxbury,,,COTTAGE,RD,COTTAGE RD,"(42.262698927662, -71.1591218767022)"
2011398000,2006,,02132,West Roxbury,,,COTTAGE,RD,COTTAGE RD,"(42.2621891021489, -71.1597860271967)"
2011433000,3739,,02132,West Roxbury,,,FALL,RD,FALL RD,"(42.2626984807525, -71.1584466039308)"
2011434000,1330,,02132,West Roxbury,,,FALL,RD,FALL RD,"(42.2626816780121, -71.1586191326645)"
2011435000,1628,,02132,West Roxbury,,,FALL,RD,FALL RD,"(42.2626731819541, -71.1587606553133)"
2011436000,2411,,02132,West Roxbury,,,COTTAGE,RD,COTTAGE RD,"(42.2628028635221, -71.1585932703461)"
2011441000,2593,,02132,West Roxbury,,,OVERLOOK,RD,OVERLOOK RD,"(42.2625945238005, -71.1580323025594)"
2011442000,2829,,02132,West Roxbury,,,OVERLOOK,RD,OVERLOOK RD,"(42.2624856610396, -71.158011414196)"
2011446000,2491,,02132,West Roxbury,,,OVERLOOK,RD,OVERLOOK RD,"(42.2620821226906, -71.1580448336747)"
2011469000,1579,,02132,West Roxbury,,,HIGH,RD,HIGH RD,"(42.2616624889837, -71.1586292180881)"
2011470000,1662,,02132,West Roxbury,,,HIGH,RD,HIGH RD,"(42.2616058572684, -71.1586317264456)"
2011471000,1537,,02132,West Roxbury,,,HIGH,RD,HIGH RD,"(42.2615463388805, -71.158621870541)"
2011472000,1626,,02132,West Roxbury,,,HIGH,RD,HIGH RD,"(42.2614590372989, -71.1585680184979)"
2011473000,1502,,02132,West Roxbury,,,CROSS,RD,CROSS RD,"(42.2614558480813, -71.1586683285437)"
2011474000,3119,,02132,West Roxbury,,,BUNGALOW,RD,BUNGALOW RD,"(42.2614615583536, -71.158798020968)"
2011475000,1340,,02132,West Roxbury,,,BUNGALOW,RD,BUNGALOW RD,"(42.2615572221253, -71.1588581344995)"
2011476000,2999,,02132,West Roxbury,,,BUNGALOW,RD,BUNGALOW RD,"(42.2616217009732, -71.1589574273244)"
2011452000,2312,,02132,West Roxbury,,,HIGH,RD,HIGH RD,"(42.2617549129507, -71.1583102714786)"
2011454000,3693,,02132,West Roxbury,,,HIGH,RD,HIGH RD,"(42.2620021935724, -71.1582839228559)"
2011455000,1264,,02132,West Roxbury,,,HIGH,RD,HIGH RD,"(42.2621166849439, -71.1582707583428)"
2011456000,1281,,02132,West Roxbury,,,HIGH,RD,HIGH RD,"(42.2621736766401, -71.1582663259968)"
2011458000,2645,,02132,West Roxbury,,,HIGH,RD,HIGH RD,"(42.2623125287978, -71.1582530330362)"
2011459000,2569,,02132,West Roxbury,,,HIGH,RD,HIGH RD,"(42.2624220081892, -71.1582459681437)"
2011460000,1201,,02132,West Roxbury,,,HIGH,RD,HIGH RD,"(42.2625026185246, -71.1582459487186)"
2011461000,1672,,02132,West Roxbury,,,HIGH,RD,HIGH RD,"(42.2625693862087, -71.1582376624139)"
2011462000,1190,,02132,West Roxbury,,,HIGH,RD,HIGH RD,"(42.2625014850388, -71.158451031187)"
2011204000,1563,,02132,West Roxbury,,,OAK,RD,OAK RD,"(42.2637491427795, -71.1590529573831)"
2011272000,2600,,02132,West Roxbury,,,COTTAGE,RD,COTTAGE RD,"(42.2654907587023, -71.1606996522702)"
2011274000,3115,,02132,West Roxbury,,,COTTAGE,RD,COTTAGE RD,"(42.2652083824215, -71.1603493718923)"
2011275000,3307,,02132,West Roxbury,,,COTTAGE,RD,COTTAGE RD,"(42.2651365983184, -71.1602088660334)"
2011276000,2606,,02132,West Roxbury,,,CHERRY,RD,CHERRY RD,"(42.265037803016, -71.160233452097)"
2011284000,1219,,02132,West Roxbury,,,COTTAGE,RD,COTTAGE RD,"(42.2643183087387, -71.1588113896296)"
2011285000,3677,,02132,West Roxbury,,,COTTAGE,RD,COTTAGE RD,"(42.2644023568078, -71.158919754336)"
2011286000,2444,,02132,West Roxbury,,,COTTAGE,RD,COTTAGE RD,"(42.2645029945689, -71.1590408166341)"
2011287000,2429,,02132,West Roxbury,,,COTTAGE,RD,COTTAGE RD,"(42.2645868663054, -71.1591441341838)"
2011289000,3687,,02132,West Roxbury,,,COTTAGE,RD,COTTAGE RD,"(42.2647636035036, -71.1594037033131)"
2011308000,2430,,02132,West Roxbury,,,COTTAGE,RD,COTTAGE RD,"(42.2665657665579, -71.1615932528492)"
2011309000,2393,,02132,West Roxbury,,,COTTAGE,RD,COTTAGE RD,"(42.2666471283859, -71.1616929879878)"
2011310000,2309,,02132,West Roxbury,,,COTTAGE,RD,COTTAGE RD,"(42.2667294452016, -71.1617882032964)"
2011311000,2219,,02132,West Roxbury,,,COTTAGE,RD,COTTAGE RD,"(42.2668125540428, -71.1618836658174)"
2011314000,3412,,02132,West Roxbury,,,COTTAGE,RD,COTTAGE RD,"(42.2670181471576, -71.1621639007065)"
2011315000,5179,,02132,West Roxbury,,,COTTAGE,RD,COTTAGE RD,"(42.2670885088236, -71.1623037470286)"
2011213000,3200,,02132,West Roxbury,,,CHESTNUT,RD,CHESTNUT RD,"(42.2645153258833, -71.1598941527159)"
2011216000,2376,,02132,West Roxbury,,,CHERRY,RD,CHERRY RD,"(42.2647571875409, -71.1601576460883)"
2011218000,2704,,02132,West Roxbury,,,CHERRY,RD,CHERRY RD,"(42.2649722033157, -71.1600134606538)"
2011219000,2218,,02132,West Roxbury,,,COTTAGE,RD,COTTAGE RD,"(42.2648529476663, -71.1599338256982)"
2011223000,4380,,02132,West Roxbury,,,COTTAGE,RD,COTTAGE RD,"(42.2645913729894, -71.1596109660473)"
2011224000,3170,,02132,West Roxbury,,,COTTAGE,RD,COTTAGE RD,"(42.2644974148135, -71.1594797045467)"
2011225000,3200,,02132,West Roxbury,,,COTTAGE,RD,COTTAGE RD,"(42.2644161730869, -71.1593804203843)"
2011226000,1600,,02132,West Roxbury,,,COTTAGE,RD,COTTAGE RD,"(42.2643551650157, -71.1593060274289)"
2011238000,2980,,02132,West Roxbury,,,CHESTNUT,RD,CHESTNUT RD,"(42.2654631410001, -71.1610547197924)"
2011576000,891,,02132,West Roxbury,,,OVERLOOK,RD,OVERLOOK RD,"(42.2611037594147, -71.1577909412104)"
2011577000,1878,,02132,West Roxbury,,72,OVERLOOK,RD,72 OVERLOOK RD,"(42.2611938754787, -71.1577458859997)"
2011578000,2970,,02132,West Roxbury,,68,OVERLOOK,RD,68 OVERLOOK RD,"(42.2613312787452, -71.1577733515482)"
2011540000,1334,,02132,West Roxbury,,,SPRING,RD,SPRING RD,"(42.2610584887118, -71.1589827903829)"
2011541000,1477,,02132,West Roxbury,,,SPRING,RD,SPRING RD,"(42.2610874073983, -71.1590418798109)"
2011543000,1652,,02132,West Roxbury,,,SPRING,RD,SPRING RD,"(42.261191340741, -71.1592175455017)"
2011544000,3000,,02132,West Roxbury,,,BUNGALOW,RD,BUNGALOW RD,"(42.261289197657, -71.1585968743749)"
2011554000,1625,,02132,West Roxbury,,,BUNGALOW,RD,BUNGALOW RD,"(42.2611757143543, -71.1582875273459)"
2011154000,1240,,02132,West Roxbury,,,CEDAR,RD,CEDAR RD,"(42.2638525281546, -71.1602338999323)"
2011156000,1222,,02132,West Roxbury,,,POND,RD,POND RD,"(42.263974964457, -71.1601633100344)"
2011157000,2416,,02132,West Roxbury,,,POND,RD,POND RD,"(42.263857734934, -71.1600682658586)"
2011162000,1238,,02132,West Roxbury,,,PINE,RD,PINE RD,"(42.2631606269737, -71.1605509582912)"
2011163000,1237,,02132,West Roxbury,,,PINE,RD,PINE RD,"(42.2631125231431, -71.1605446306451)"
2011164000,2475,,02132,West Roxbury,,,PINE,RD,PINE RD,"(42.2630298087444, -71.1605325236284)"
2011165000,3099,,02132,West Roxbury,,,PINE,RD,PINE RD,"(42.2628968294978, -71.1605119032689)"
2011166000,948,,02132,West Roxbury,,,PINE,RD,PINE RD,"(42.2627923351354, -71.1605199431119)"
2011169000,1800,,02132,West Roxbury,,,DANA,RD,DANA RD,"(42.2625805227752, -71.160553910013)"
2011170000,771,,02132,West Roxbury,,,DANA,RD,DANA RD,"(42.2626447283437, -71.1606226401605)"
2011171000,3141,,02132,West Roxbury,,,DANA,RD,DANA RD,"(42.26275425733, -71.1606886944171)"
2011172000,3621,,02132,West Roxbury,,,DANA,RD,DANA RD,"(42.2628922276642, -71.1607749153618)"
2011173000,1582,,02132,West Roxbury,,,DANA,RD,DANA RD,"(42.2630139954921, -71.1607372425923)"
2011535000,2327,,02132,West Roxbury,,,SPRING,RD,SPRING RD,"(42.2608088327528, -71.1584509043696)"
2011524000,3326,,02132,West Roxbury,,,CAMP,RD,CAMP RD,"(42.2612740436112, -71.1592596983921)"
2011527000,2903,,02132,West Roxbury,,,BUNGALOW,RD,BUNGALOW RD,"(42.2613426241055, -71.1590200755938)"
2011528000,2622,,02132,West Roxbury,,,BUNGALOW,RD,BUNGALOW RD,"(42.2612610004411, -71.1589188192943)"
2011529000,1205,,02132,West Roxbury,,,BUNGALOW,RD,BUNGALOW RD,"(42.2611970453739, -71.1588396949349)"
2011499000,1218,,02132,West Roxbury,,,COTTAGE,RD,COTTAGE RD,"(42.2621418071931, -71.1595343180076)"
2011500000,1494,,02132,West Roxbury,,,STIMSON,RD,STIMSON RD,"(42.2620643535205, -71.1595870299894)"
2011501000,1811,,02132,West Roxbury,,,STIMSON,RD,STIMSON RD,"(42.261994144818, -71.1596411617237)"
2011502000,1090,,02132,West Roxbury,,,STIMSON,RD,STIMSON RD,"(42.2618671394269, -71.1596345511497)"
2011503000,1788,,02132,West Roxbury,,,STIMSON,RD,STIMSON RD,"(42.2617628450215, -71.1597114100995)"
2011481000,2918,,02132,West Roxbury,,,CAMP,RD,CAMP RD,"(42.2623605664808, -71.1588422598511)"
2011482000,3761,,02132,West Roxbury,,,CAMP,RD,CAMP RD,"(42.2624971618186, -71.1589003687974)"
2011483000,1200,,02132,West Roxbury,,,CAMP,RD,CAMP RD,"(42.2625043984017, -71.1587526780411)"
2011484000,3600,,02132,West Roxbury,,,FALL,RD,FALL RD,"(42.2625017391278, -71.1586038569178)"
2011492000,3618,,02132,West Roxbury,,,CAMP,RD,CAMP RD,"(42.2614772822256, -71.1593786449995)"
0703275005,1288,,02125,Dorchester,,,HOWELL,ST,HOWELL ST,"(42.3250986529609, -71.0572889050273)"
1500794000,11649,,02124,Dorchester,,,WESTVILLE,ST,WESTVILLE ST,"(42.3006201840385, -71.0706742763518)"
1502452000,8073,,02125,Dorchester,,,SAYWARD,ST,SAYWARD ST,"(42.3135620767286, -71.0687482101402)"
0900428000,1824,,02118,South End,,90 HF,NEWLAND,ST,90 HF NEWLAND ST,"(42.3391110341457, -71.0759593673897)"
0900429000,1633,,02118,South End,,88 HF,NEWLAND,ST,88 HF NEWLAND ST,"(42.3391913263488, -71.0758372418344)"
1001126000,6376,,02120,Jamaica Plain,,,PROSPECT,ST,PROSPECT ST,"(42.3293352317302, -71.1005974029127)"
1001127000,3568,,02120,Jamaica Plain,,,PROSPECT,ST,PROSPECT ST,"(42.3291348809556, -71.1003446067318)"
1001128000,2902,,02120,Jamaica Plain,,,PROSPECT,ST,PROSPECT ST,"(42.3290357866892, -71.1002133733793)"
1001129000,2556,,02120,Jamaica Plain,,,PROSPECT,ST,PROSPECT ST,"(42.3289279188539, -71.1001185981618)"
1001130000,3131,,02120,Jamaica Plain,,,PROSPECT,ST,PROSPECT ST,"(42.3288548338798, -71.1000114599859)"
1001131000,3788,,02120,Jamaica Plain,,,PROSPECT,ST,PROSPECT ST,"(42.3287809087974, -71.0998994413472)"
1001132000,4546,,02120,Jamaica Plain,,,PROSPECT,ST,PROSPECT ST,"(42.3286980326665, -71.099788255222)"
1001133000,5283,,02120,Jamaica Plain,,,PROSPECT,ST,PROSPECT ST,"(42.3286164621037, -71.0996843770376)"
1001134000,4600,,02120,Jamaica Plain,,,PROSPECT,ST,PROSPECT ST,"(42.3285797287176, -71.0995442077805)"
1300587000,11600,,02125,Roxbury,,,WOODCLIFF,ST,WOODCLIFF ST,"(42.3155942108793, -71.0744677083784)"
1300588000,3200,,02125,Roxbury,,,WOODCLIFF,ST,WOODCLIFF ST,"(42.3155853230386, -71.0746514434018)"
1300589000,3150,,02125,Roxbury,,78,WOODCLIFF,ST,78 WOODCLIFF ST,"(42.31563798045, -71.0747609304011)"
1502805000,32893,,02125,Dorchester,,,HOWE,ST,HOWE ST,"(42.310712523735, -71.0656987765614)"
1502806000,1025,,02125,Dorchester,,,HOWE,TE,HOWE TE,"(42.3105890912813, -71.0653303329006)"
1502807000,2887,,02125,Dorchester,,,HOWE,TE,HOWE TE,"(42.3104676422627, -71.0652710824772)"
1502808000,3017,,02125,Dorchester,,,HOWE,TE,HOWE TE,"(42.3103702727042, -71.0652077845803)"
1300628000,7850,,02125,Roxbury,,,SARGENT,ST,SARGENT ST,"(42.3152781580577, -71.0745357464251)"
1300596000,1968,,02125,Roxbury,,2 4,LETTERFINE,TE,2 4 LETTERFINE TE,"(42.315922060823, -71.0749156499758)"
1300597000,2100,,02125,Roxbury,,6,LETTERFINE,TE,6 LETTERFINE TE,"(42.3158766883932, -71.0748109165113)"
1300598000,1966,,02125,Roxbury,,10 12,LETTERFINE,TE,10 12 LETTERFINE TE,"(42.3158381367182, -71.0747087415052)"
1300599000,1635,,02125,Roxbury,,14 16,LETTERFINE,TE,14 16 LETTERFINE TE,"(42.3158027182258, -71.0746108145958)"
1300600000,3848,,02125,Roxbury,,,LETTERFINE,TE,LETTERFINE TE,"(42.3158853201168, -71.0744769588183)"
1300601000,1736,,02125,Roxbury,,5 7,LETTERFINE,TE,5 7 LETTERFINE TE,"(42.3160103876985, -71.0745340206404)"
1300602000,2016,,02125,Roxbury,,1 3,LETTERFINE,TE,1 3 LETTERFINE TE,"(42.316052083543, -71.074636692188)"
1300569000,3066,,02125,Roxbury,,,WOODLEDGE,ST,WOODLEDGE ST,"(42.3150138676466, -71.0748875000203)"
1303393000,5200,,02125,Dorchester,,,WM T MORRISSEY,BL,WM T MORRISSEY BL,"(42.310667413344, -71.0425489795158)"
1802304000,5599,,02126,Mattapan,,,HEBRON,ST,HEBRON ST,"(42.277950526926, -71.1019470139056)"
1802306000,3200,,02126,Mattapan,,,KENNEBEC,ST,KENNEBEC ST,"(42.2777524116618, -71.1017757356553)"
1802307000,4000,,02126,Mattapan,,,KENNEBEC,ST,KENNEBEC ST,"(42.2776816315015, -71.1018921920963)"
1802308000,4000,,02126,Mattapan,,,KENNEBEC,ST,KENNEBEC ST,"(42.2775956624922, -71.1019828723288)"
1802311000,6000,,02126,Mattapan,,,KENNEBEC,ST,KENNEBEC ST,"(42.2773118426077, -71.1022690066333)"
1802347000,4000,,02126,Mattapan,,,ALABAMA,ST,ALABAMA ST,"(42.2743701516648, -71.104117924821)"
1802348000,4000,,02126,Mattapan,,,ALABAMA,ST,ALABAMA ST,"(42.2742764049666, -71.1042146150035)"
1802222000,4642,,02126,Mattapan,,,SAVANNAH,AV,SAVANNAH AV,"(42.2743795227942, -71.1000638906629)"
1802224000,4200,,02126,Mattapan,,,SAVANNAH,AV,SAVANNAH AV,"(42.2745540320656, -71.0998824764655)"
1802225000,4200,,02126,Mattapan,,,SAVANNAH,AV,SAVANNAH AV,"(42.2746471485488, -71.0997873744108)"
1802227000,4200,,02126,Mattapan,,,SAVANNAH,AV,SAVANNAH AV,"(42.2748159397769, -71.0996134816597)"
1802229000,4200,,02126,Mattapan,,,SAVANNAH,AV,SAVANNAH AV,"(42.2749878946327, -71.0994378909165)"
1802230000,4200,,02126,Mattapan,,,SAVANNAH,AV,SAVANNAH AV,"(42.2750756747225, -71.0993500375947)"
1802231000,4200,,02126,Mattapan,,,SAVANNAH,AV,SAVANNAH AV,"(42.2751623427624, -71.099258052713)"
1802232000,4200,,02126,Mattapan,,,SAVANNAH,AV,SAVANNAH AV,"(42.2752533543697, -71.0991669224015)"
1802233000,4200,,02126,Mattapan,,,SAVANNAH,AV,SAVANNAH AV,"(42.2753363607, -71.0990803885663)"
1802234000,4200,,02126,Mattapan,,,SAVANNAH,AV,SAVANNAH AV,"(42.2754193036734, -71.098999085663)"
1802235000,4200,,02126,Mattapan,,,SAVANNAH,AV,SAVANNAH AV,"(42.2755059080148, -71.0989066614752)"
1802236000,4200,,02126,Mattapan,,,SAVANNAH,AV,SAVANNAH AV,"(42.2755879642673, -71.0988209479281)"
1802237000,6475,,02126,Mattapan,,,SAVANNAH,AV,SAVANNAH AV,"(42.2757343197223, -71.0986884524666)"
1813005000,16128,,02136,Hyde Park,,,SPRAGUE,ST,SPRAGUE ST,"(42.2349687281759, -71.1370512698943)"
1813018000,26520,,02136,Hyde Park,,,SPRAGUE,ST,SPRAGUE ST,"(42.236839719873, -71.1349370309651)"
1812269061,3943,,02136,Hyde Park,,,UPTON,ST,UPTON ST,"(42.2501336836031, -71.1408804431389)"
1811039000,24244,,02136,Hyde Park,,,TRUMAN,HW,TRUMAN HW,"(42.2558421359283, -71.1157521811497)"
1811985009,5220,,02136,Hyde Park,,,THOMPSON,ST,THOMPSON ST,"(42.2504534679693, -71.1362773606693)"
1811985011,5060,,02136,Hyde Park,,,THOMPSON,ST,THOMPSON ST,"(42.2503289669957, -71.13633617441)"
1811985015,5000,,02136,Hyde Park,,,THOMPSON,ST,THOMPSON ST,"(42.2500039366278, -71.1364388016101)"
1811986000,1175,,02136,Hyde Park,,,THOMPSON,ST,THOMPSON ST,"(42.2498929925641, -71.1364706428444)"
1812186000,4139,,02136,Hyde Park,,,WESTON,ST,WESTON ST,"(42.2504996445901, -71.1400543547696)"
1812187000,3964,,02136,Hyde Park,,,WESTON,ST,WESTON ST,"(42.2505733192954, -71.1400058989998)"
1812188000,3788,,02136,Hyde Park,,,WESTON,ST,WESTON ST,"(42.2506414857352, -71.1399471266977)"
1812189000,3613,,02136,Hyde Park,,,WESTON,ST,WESTON ST,"(42.2507178326066, -71.1398998905806)"
1812190000,3438,,02136,Hyde Park,,,WESTON,ST,WESTON ST,"(42.250788553085, -71.1398454408854)"
1812191000,3263,,02136,Hyde Park,,,WESTON,ST,WESTON ST,"(42.2508560705498, -71.1397897623771)"
1812192000,3088,,02136,Hyde Park,,,WESTON,ST,WESTON ST,"(42.2509254499911, -71.1397449950459)"
1812193000,3000,,02136,Hyde Park,,,WESTON,ST,WESTON ST,"(42.2509917009207, -71.1396904431484)"
1812194000,3000,,02136,Hyde Park,,,WESTON,ST,WESTON ST,"(42.2510591429042, -71.1396258363216)"
1812195000,3000,,02136,Hyde Park,,,WESTON,ST,WESTON ST,"(42.2511283099646, -71.139568299387)"
1812196000,3000,,02136,Hyde Park,,,WESTON,ST,WESTON ST,"(42.2511971106532, -71.1395040412517)"
1812197000,3000,,02136,Hyde Park,,,WESTON,ST,WESTON ST,"(42.2512653884479, -71.1394410749079)"
1812231000,3000,,02136,Hyde Park,,,WESTON,ST,WESTON ST,"(42.2512877494265, -71.1400696949353)"
1812232000,3000,,02136,Hyde Park,,,WESTON,ST,WESTON ST,"(42.2512182334375, -71.1401321712131)"
1812234000,3000,,02136,Hyde Park,,,WESTON,ST,WESTON ST,"(42.2510816643796, -71.1402515710773)"
1812235000,3000,,02136,Hyde Park,,,WESTON,ST,WESTON ST,"(42.2510202815477, -71.1403112273907)"
1812236000,3000,,02136,Hyde Park,,,WESTON,ST,WESTON ST,"(42.2509491166047, -71.1403692479137)"
1812262000,65000,,02136,Hyde Park,,,DEDHAM LINE,,DEDHAM LINE,"(42.2488039681405, -71.1448984087541)"
1802828000,6000,,02126,Mattapan,,,COLORADO,ST,COLORADO ST,"(42.2736178861327, -71.1031397049964)"
1000978000,954,,02120,Jamaica Plain,,,SACHEM,ST,SACHEM ST,"(42.330953688013, -71.1071220574997)"
1802829000,4000,,02126,Mattapan,,,COLORADO,ST,COLORADO ST,"(42.2737278974767, -71.1030267450906)"
1802589000,39258,,02126,Mattapan,,,CROYDON,ST,CROYDON ST,"(42.2721559758316, -71.1055185043181)"
1802323000,2031,,02126,Mattapan,,,KENNEBEC,ST,KENNEBEC ST,"(42.2775879945636, -71.1014406655031)"
1802324000,2620,,02126,Mattapan,,,KENNEBEC,ST,KENNEBEC ST,"(42.2776799180543, -71.1013417300422)"
1802391000,6000,,02126,Mattapan,,,HEBRON,ST,HEBRON ST,"(42.2774673737574, -71.1025621637164)"
1802392000,4000,,02126,Mattapan,,,HEBRON,ST,HEBRON ST,"(42.2775734218128, -71.1024524567895)"
1802393000,2000,,02126,Mattapan,,,HEBRON,ST,HEBRON ST,"(42.2776378978113, -71.1023870223278)"
1802394000,4000,,02126,Mattapan,,,HEBRON,ST,HEBRON ST,"(42.2777063606236, -71.1023207481463)"
1802395000,6000,,02126,Mattapan,,,HEBRON,ST,HEBRON ST,"(42.2778162498705, -71.1022084198365)"
1802396000,4800,,02126,Mattapan,,,HEBRON,ST,HEBRON ST,"(42.277963699247, -71.1021073130026)"
1803931000,2116,,02136,Hyde Park,,,LAUREL,AV,LAUREL AV,"(42.2663180951735, -71.1078014450639)"
1803935000,3000,,02136,Hyde Park,,,LAUREL,AV,LAUREL AV,"(42.2666686081238, -71.1073587372179)"
1803936000,3007,,02136,Hyde Park,,,LAUREL,AV,LAUREL AV,"(42.2667471331005, -71.1072752512175)"
1804408000,1380,,02136,Hyde Park,,,RIVER,ST,RIVER ST,"(42.2602138795656, -71.1125571302576)"
1804409000,1755,,02136,Hyde Park,,,RIVER,ST,RIVER ST,"(42.2601859821955, -71.1125334555058)"
1807311006,7116,,02136,Hyde Park,,,CRANE,ST,CRANE ST,"(42.2704798182417, -71.1164729650591)"
1808516000,110098,,02131,Hyde Park,,,EDGEWAY,TE,EDGEWAY TE,"(42.2710737858994, -71.1262819969245)"
1807317000,24225,,02136,Hyde Park,,,MEACHAM,ST,MEACHAM ST,"(42.2721140853865, -71.1171048963646)"
1808517054,3840,,02136,Hyde Park,,,BEECHMONT,TE,BEECHMONT TE,"(42.2692799718718, -71.1266233680524)"
1808517055,5001,,02136,Hyde Park,,,BEECHMONT,TE,BEECHMONT TE,"(42.2691182955323, -71.1264689198882)"
1808525004,2800,,02131,Hyde Park,,,BEECHMONT,FW,BEECHMONT FW,"(42.2704862839211, -71.1276321621455)"
1808526001,2800,,02131,Hyde Park,,,BEECHMONT,FW,BEECHMONT FW,"(42.2702098059455, -71.1276397803815)"
1801605000,3785,,02136,Hyde Park,,,SUNCREST,RD,SUNCREST RD,"(42.2656277690003, -71.1019386240788)"
1801606000,3705,,02136,Hyde Park,,,SUNCREST,RD,SUNCREST RD,"(42.2657118545133, -71.102090659003)"
1808585002,764,,02136,Hyde Park,,,BEECHMONT,FW,BEECHMONT FW,"(42.2700762426552, -71.1274401485033)"
1808585005,1050,,02136,Hyde Park,,,BEECHMONT,FW,BEECHMONT FW,"(42.2704837621741, -71.1274331866049)"
1802356000,4000,,02126,Mattapan,,,KENNEBEC,ST,KENNEBEC ST,"(42.2744408221088, -71.1045256289653)"
1802638000,4000,,02126,Mattapan,,,COLORADO,ST,COLORADO ST,"(42.2739403597874, -71.1034541245173)"
2011335000,1935,,02132,West Roxbury,,,DELOS,ST,DELOS ST,"(42.2667114589115, -71.1610868868402)"
1101901000,5038,,02119,Roxbury,,8,TOWNSEND,ST,8 TOWNSEND ST,"(42.3199278188881, -71.0934564162439)"
1802752000,4623,,02126,Mattapan,,,MONTEREY,AV,MONTEREY AV,"(42.2757078747783, -71.0992964205249)"
1802753000,4200,,02126,Mattapan,,,SAVANNAH,AV,SAVANNAH AV,"(42.2756050132753, -71.099534535062)"
1802756000,4200,,02126,Mattapan,,,SAVANNAH,AV,SAVANNAH AV,"(42.2753380757021, -71.099805176316)"
1802758000,4200,,02126,Mattapan,,,SAVANNAH,AV,SAVANNAH AV,"(42.2751660419942, -71.0999804894208)"
1802759000,4200,,02126,Mattapan,,,SAVANNAH,AV,SAVANNAH AV,"(42.2750774605926, -71.1000672592205)"
1802760000,4200,,02126,Mattapan,,,SAVANNAH,AV,SAVANNAH AV,"(42.2749893759344, -71.1001560492234)"
1802761000,4200,,02126,Mattapan,,,SAVANNAH,AV,SAVANNAH AV,"(42.2749022128709, -71.1002449113474)"
1802762000,4200,,02126,Mattapan,,,SAVANNAH,AV,SAVANNAH AV,"(42.2748146021942, -71.1003329180334)"
1802763000,4200,,02126,Mattapan,,,SAVANNAH,AV,SAVANNAH AV,"(42.2747270961376, -71.1004208295432)"
1802764000,4693,,02126,Mattapan,,,SAVANNAH,AV,SAVANNAH AV,"(42.2746336474656, -71.1005159298936)"
1802639000,4000,,02126,Mattapan,,,COLORADO,ST,COLORADO ST,"(42.2738519932575, -71.1035435914198)"
1802640000,4000,,02126,Mattapan,,,COLORADO,ST,COLORADO ST,"(42.2737610816522, -71.1036342297709)"
1802641000,4000,,02126,Mattapan,,,COLORADO,ST,COLORADO ST,"(42.2736733247513, -71.1037260585509)"
1802642000,2000,,02126,Mattapan,,,COLORADO,ST,COLORADO ST,"(42.2736155234824, -71.1037889247719)"
1802644000,2000,,02126,Mattapan,,,ALABAMA,ST,ALABAMA ST,"(42.2739408667402, -71.1039094129209)"
1802646000,2000,,02126,Mattapan,,,ALABAMA,ST,ALABAMA ST,"(42.2743033921078, -71.1035479221205)"
1802647000,4000,,02126,Mattapan,,,ALABAMA,ST,ALABAMA ST,"(42.2743708120018, -71.1034786218774)"
1802648000,16000,,02126,Mattapan,,,ALABAMA,ST,ALABAMA ST,"(42.2745923957465, -71.1032538438142)"
1802778000,4264,,02126,Mattapan,,,MONTEREY,AV,MONTEREY AV,"(42.2757582830503, -71.0994779793527)"
1802637000,6000,,02126,Mattapan,,,COLORADO,ST,COLORADO ST,"(42.2740521189952, -71.1033395985192)"
0802177000,812,,02119,Roxbury,,,CHADWICK,ST,CHADWICK ST,"(42.330920573148, -71.0752861316424)"
0802178000,90,,02119,Roxbury,,,CHADWICK,ST,CHADWICK ST,"(42.3309632139657, -71.0752422363862)"
1300732000,3080,,02121,Roxbury,,97 99,QUINCY,ST,97 99 QUINCY ST,"(42.3140166791429, -71.0780854531125)"
2011088000,4874,,02132,West Roxbury,,,CHERRY,RD,CHERRY RD,"(42.2636814344039, -71.1609560882457)"
2011089000,4886,,02132,West Roxbury,,,CEDAR,RD,CEDAR RD,"(42.2634769889929, -71.160952145947)"
2011090000,3561,,02132,West Roxbury,,,CEDAR,RD,CEDAR RD,"(42.2633244700274, -71.161040914146)"
2011091000,2660,,02132,West Roxbury,,,DANA,RD,DANA RD,"(42.2634328934002, -71.1611493135615)"
2011092000,1346,,02132,West Roxbury,,,DANA,RD,DANA RD,"(42.263506395096, -71.1612537609932)"
0101393001,109175,,02128,East Boston,,150,BARNES,AV,150 BARNES AV,"(42.3845443960903, -70.9950576750909)"
2010812000,5142,,02132,West Roxbury,,,PLEASANTDALE,RD,PLEASANTDALE RD,"(42.2603774161366, -71.1618844081824)"
0203968000,14953,,02129,Charlestown,,,WARREN,ST,WARREN ST,"(42.3694960768077, -71.0638863364758)"
0104093001,25441,,02128,East Boston,,,MAVERICK,ST,MAVERICK ST,"(42.3685863601888, -71.0333659814269)"
0100433000,36932,,02128,East Boston,,,CHELSEA CREEK,,CHELSEA CREEK,"(42.3961511716128, -71.0138632157558)"
0100435005,364600,,02128,East Boston,,,BOSTON AND MAINE RR,,BOSTON AND MAINE RR,"(42.3911732511646, -71.0161218427548)"
0100435010,99650,,02128,East Boston,,,BOSTON AND MAINE RR,,BOSTON AND MAINE RR,"(42.388258769026, -71.0182505724343)"
0103705020,118639,,02128,East Boston,,,CONDOR,ST,CONDOR ST,"(42.3846039940157, -71.0356658871059)"
1602570000,3190,,02122,Dorchester,,,TENEAN,ST,TENEAN ST,"(42.2919234598361, -71.0447243365109)"
1600003000,126479,,02122,Dorchester,,,FREEPORT,ST,FREEPORT ST,"(42.3032799700014, -71.0492429026232)"
1600007001,89360,,02122,Dorchester,,,FREEPORT,ST,FREEPORT ST,"(42.30465575436, -71.0513956960187)"
1400552000,3700,,02121,Roxbury,,35,CRESTON,ST,35 CRESTON ST,"(42.3116934047088, -71.0786453850503)"
1400553000,3700,,02121,Roxbury,,37,CRESTON,ST,37 CRESTON ST,"(42.3116460934501, -71.0785235173013)"
1201457000,4729,,02119,Roxbury,,41,ALPINE,ST,41 ALPINE ST,"(42.3252507014375, -71.0868586466694)"
1201458000,5140,,02119,Roxbury,,43,ALPINE,ST,43 ALPINE ST,"(42.3251946926699, -71.0867319288308)"
1802158000,8880,,02126,Mattapan,,,MESSINGER,ST,MESSINGER ST,"(42.2723035578818, -71.0971341389346)"
1802159003,11310,,02126,Mattapan,,,BROCKTON,ST,BROCKTON ST,"(42.272666211712, -71.0969204291268)"
1812269028,3000,,02136,Hyde Park,,,VERNON,ST,VERNON ST,"(42.2522269960101, -71.1403092222458)"
1812269029,3000,,02136,Hyde Park,,,VERNON,ST,VERNON ST,"(42.2521597640907, -71.1403693714988)"
1812269059,2818,,02136,Hyde Park,,,UPTON,ST,UPTON ST,"(42.2503161090347, -71.141009128235)"
1812269060,2922,,02136,Hyde Park,,,UPTON,ST,UPTON ST,"(42.2502436331337, -71.1409911482646)"
1801202000,1072,,02126,Mattapan,,,RIVER,ST,RIVER ST,"(42.2649427608157, -71.0989824287824)"
1809440000,156095,,02136,Hyde Park,,,NEPONSET RIVER,,NEPONSET RIVER,"(42.2460892961411, -71.1273107154952)"
1811062000,7552,,02136,Hyde Park,,,TRUMAN,HW,TRUMAN HW,"(42.2562127643975, -71.1146750712467)"
1811985005,5400,,02136,Hyde Park,,,THOMPSON,ST,THOMPSON ST,"(42.2506760199251, -71.136134723829)"
2011094000,3850,,02132,West Roxbury,,,WALNUT,RD,WALNUT RD,"(42.2638976087698, -71.1611481310834)"
2005738020,20671,,02132,West Roxbury,,,RAILROAD,ST,RAILROAD ST,"(42.2855616075146, -71.1540703664997)"
1810601000,6338,,02136,Hyde Park,,,FAIRMOUNT,CT,FAIRMOUNT CT,"(42.2532261972992, -71.1192546266772)"
1200475000,7840,,02119,Roxbury,,58,CLIFFORD,ST,58 CLIFFORD ST,"(42.3196553169275, -71.0787137810729)"
1200446000,4125,,02119,Roxbury,,35,WAVERLY,ST,35 WAVERLY ST,"(42.3207669712964, -71.0803681228346)"
1103736000,3420,,02130,Roslindale,,,ORCHARD,AV,ORCHARD AV,"(42.2986093489157, -71.1103882487318)"
1103738000,5698,,02130,Roslindale,,,ORCHARD,AV,ORCHARD AV,"(42.2985369585143, -71.1100961753486)"
1103739000,5286,,02130,Roslindale,,,ORCHARD,AV,ORCHARD AV,"(42.2987402994765, -71.1100532228235)"
1100846000,4446,,02119,Roxbury,,287,HIGHLAND,ST,287 HIGHLAND ST,"(42.3242992880187, -71.096856898974)"
1100414000,2836,,02119,Roxbury,,,THORNTON,ST,THORNTON ST,"(42.3221937254931, -71.0928454655758)"
1100449000,2040,,02119,Roxbury,,26,FULDA,ST,26 FULDA ST,"(42.3226288883397, -71.0928600063708)"
1100462000,11052,,02119,Roxbury,,,THORNTON,ST,THORNTON ST,"(42.3226033177329, -71.0925973675032)"
1100463000,1188,,02119,Roxbury,,151,THORNTON,ST,151 THORNTON ST,"(42.3224004473014, -71.0925463512999)"
1100464000,1065,,02119,Roxbury,,153,THORNTON,ST,153 THORNTON ST,"(42.322357681681, -71.0926059429358)"
1100465000,1075,,02119,Roxbury,,155,THORNTON,ST,155 THORNTON ST,"(42.3223155545922, -71.0926620063665)"
1804188000,3622,,02136,Hyde Park,,,PARKER,ST,PARKER ST,"(42.2676997753178, -71.10989759625)"
1804189000,3637,,02136,Hyde Park,,,PARKER,ST,PARKER ST,"(42.2677478732189, -71.1097434271576)"
1804191000,3605,,02136,Hyde Park,,,PARKER,ST,PARKER ST,"(42.267846218801, -71.1094353507527)"
2007837001,592,,02132,West Roxbury,,,BAKER,ST,BAKER ST,"(42.2949077183961, -71.1780724372477)"
2007837002,8941,,02132,West Roxbury,,,BAKER,ST,BAKER ST,"(42.2962898512166, -71.1759381527414)"
2011399000,2147,,02132,West Roxbury,,,DANA,RD,DANA RD,"(42.2622841594261, -71.1599503731405)"
1806976000,39645,,02136,Hyde Park,,,SAFFORD,ST,SAFFORD ST,"(42.2670078886115, -71.114746808085)"
1808518024,5357,,02131,Hyde Park,,,BEECH,ST,BEECH ST,"(42.2712276960103, -71.1270998265791)"
2003059000,5847,,02132,West Roxbury,,,GROVE,ST,GROVE ST,"(42.2640785246931, -71.1576099034502)"
2002989000,19427,,02132,West Roxbury,,,HIGH VIEW,AV,HIGH VIEW AV,"(42.2694267268324, -71.1543164966444)"
2011536000,1341,,02132,West Roxbury,,,SPRING,RD,SPRING RD,"(42.2608393688817, -71.1585510095645)"
2011537000,1436,,02132,West Roxbury,,,SPRING,RD,SPRING RD,"(42.2608663071397, -71.1586149450408)"
1101279000,1786,,02119,Roxbury,,2,ATHERTON,ST,2 ATHERTON ST,"(42.315728373855, -71.0986878574121)"
1101013000,3242,,02119,Roxbury,,,COLUMBUS,AV,COLUMBUS AV,"(42.3159139689058, -71.0985080995275)"
1101479000,2401,,02119,Roxbury,,2,GLINES,AV,2 GLINES AV,"(42.3135934125234, -71.0985403053623)"
1200435000,7929,,02119,Roxbury,,64,WAVERLY,ST,64 WAVERLY ST,"(42.3204101946613, -71.0785697437596)"
1200439000,6188,,02119,Roxbury,,50 52,WAVERLY,ST,50 52 WAVERLY ST,"(42.320719031263, -71.0792353498123)"
1102518000,6530,,02130,Roxbury,,,ROCKY NOOK,TE,ROCKY NOOK TE,"(42.3092722842982, -71.1009763804964)"
1200884000,3096,,02119,Roxbury,,12 14,EDGEWOOD,ST,12 14 EDGEWOOD ST,"(42.3189267010291, -71.0809801004056)"
1200885000,2220,,02119,Roxbury,,,EDGEWOOD,PK,EDGEWOOD PK,"(42.3190138778779, -71.0808948482513)"
1200886000,2041,,02119,Roxbury,,,EDGEWOOD,PK,EDGEWOOD PK,"(42.3190826920112, -71.0808332295039)"
1103740000,5000,,02130,Roslindale,,,LENNOCO,RD,LENNOCO RD,"(42.2988860686621, -71.1100079435432)"
1201263000,9736,,02119,Roxbury,,2406,WASHINGTON,ST,2406 WASHINGTON ST,"(42.3285954696822, -71.0853026066104)"
1202423000,10800,,02121,Roxbury,,84,MAPLE,ST,84 MAPLE ST,"(42.3079114736554, -71.0860607874423)"
1202528000,4105,,02121,Roxbury,,461 465,BLUE HILL,AV,461 465 BLUE HILL AV,"(42.3091310197608, -71.0832353850389)"
1202849000,4794,,02121,Roxbury,,20 22,GLENBURNE,ST,20 22 GLENBURNE ST,"(42.3158640713216, -71.0822637775625)"
1400522000,4000,,02121,Roxbury,,64,INTERVALE,ST,64 INTERVALE ST,"(42.3112351978712, -71.0786667017721)"
1200777000,1923,,02119,Roxbury,,310,WARREN,ST,310 WARREN ST,"(42.3203149524521, -71.0812370366343)"
1103041000,1380,,02130,Jamaica Plain,,79,CALL,ST,79 CALL ST,"(42.307549336724, -71.1102293864392)"
1102267000,7425,,02130,Roxbury,,11 15R,GREENLEY,PL,11 15R GREENLEY PL,"(42.3104930903855, -71.1046317671578)"
1101174000,3138,,02119,Roxbury,,,AMORY,ST,AMORY ST,"(42.3215719302697, -71.0990002702081)"
1100722000,6234,,02119,Roxbury,,107 109,CENTRE,ST,107 109 CENTRE ST,"(42.3276562968507, -71.0960358067993)"
1904700000,3762,,02130,Roslindale,,,BARLOW,ST,BARLOW ST,"(42.2968376135867, -71.1134471887945)"
1904701000,3686,,02130,Roslindale,,,BARLOW,ST,BARLOW ST,"(42.2967638524328, -71.1133395678875)"
1904705000,5137,,02130,Roslindale,,,WACHUSETT,ST,WACHUSETT ST,"(42.2966415823099, -71.1135885279957)"
2010812008,6160,,02132,West Roxbury,,,PLEASANTDALE,RD,PLEASANTDALE RD,"(42.2613349168057, -71.1616848505557)"
1804190000,3621,,02136,Hyde Park,,,PARKER,ST,PARKER ST,"(42.2677974593201, -71.1095876444187)"
1904699000,3337,,02130,Roslindale,,,BARLOW,ST,BARLOW ST,"(42.2969013619887, -71.1135478063295)"
1100236000,4144,,02119,Roxbury,Buildable,2775 2775B,WASHINGTON,ST,2775 2775B WASHINGTON ST,"(42.3222776872369, -71.0915597379797)"
1101856000,6619,,02119,Roxbury,,275,WALNUT,AV,275 WALNUT AV,"(42.3171754522031, -71.0921222461245)"
1811985007,5400,,02136,Hyde Park,,,THOMPSON,ST,THOMPSON ST,"(42.2505646693089, -71.136208158279)"
1809676000,5979,,02136,Hyde Park,,,COLCHESTER,ST,COLCHESTER ST,"(42.2350959771712, -71.1292589460807)"
1801203000,10744,,02126,Mattapan,,,RIVER,ST,RIVER ST,"(42.2645898477875, -71.0987754108131)"
1401009000,4413,,02121,Roxbury,,424,SEAVER,ST,424 SEAVER ST,"(42.3030336835868, -71.0803724448243)"
1401001000,3947,,02121,Roxbury,,8,MERRILL,ST,8 MERRILL ST,"(42.3031006381022, -71.080027587818)"
0104912000,3100,,02128,East Boston,,294 296,SUMNER,ST,294 296 SUMNER ST,"(42.3678289893709, -71.0366837473305)"
0101139000,2500,,02128,East Boston,,64,HOMER,ST,64 HOMER ST,"(42.3817413392673, -71.0170384606916)"
1100365000,1422,,02119,Roxbury,,2833,WASHINGTON,ST,2833 WASHINGTON ST,"(42.3211269312858, -71.0929723256673)"
1100367000,4591,,02119,Roxbury,,2841 2845,WASHINGTON,ST,2841 2845 WASHINGTON ST,"(42.321022123695, -71.0932560443644)"
1801604000,3718,,02136,Hyde Park,,,SUNCREST,RD,SUNCREST RD,"(42.2655417819345, -71.1017892741145)"
1801486000,5650,,02136,Hyde Park,,,BELNEL,RD,BELNEL RD,"(42.2630661898298, -71.1046435465647)"
1803998000,3600,,02136,Hyde Park,Buildable,,RUSKINDALE,RD,RUSKINDALE RD,"(42.269598101071, -71.1097306464126)"
1803999000,3600,,02136,Hyde Park,Buildable,,RUSKINDALE,RD,RUSKINDALE RD,"(42.2695238533231, -71.1096017881065)"
1811055000,14110,,02136,Hyde Park,,,PLEASANT,ST,PLEASANT ST,"(42.2557315292727, -71.1150971833652)"
1810851002,18452,,02136,Hyde Park,,,LOCHLAND,RD,LOCHLAND RD,"(42.2513333124585, -71.109611497111)"
1302237000,2710,,02125,Dorchester,,,SPRINGDALE,ST,SPRINGDALE ST,"(42.30971793908, -71.0530112310313)"
1000842000,3182,,02120,Jamaica Plain,,,WAIT,ST,WAIT ST,"(42.3327293257178, -71.1060433469571)"
0903740000,3115,,02119,Roxbury,,6 8,THORNTON,ST,6 8 THORNTON ST,"(42.3263463618331, -71.0888601607523)"
0802936000,1225,,02119,Roxbury,,63,BLUE HILL,AV,63 BLUE HILL AV,"(42.3231413680723, -71.0767319196975)"
0703309000,535,,02125,Dorchester,,,WASHBURN,ST,WASHBURN ST,"(42.3255700217266, -71.0571855986103)"
0901968010,21906,,02120,South End,,,MELNEA CASS,BL,MELNEA CASS BL,"(42.3353314409867, -71.0854381223232)"
1000979000,363,,02120,Jamaica Plain,,,SACHEM,ST,SACHEM ST,"(42.3309345477601, -71.1074082112722)"
0700239000,20968,,02127,South Boston,,,DORCHESTER,AV,DORCHESTER AV,"(42.3325428993597, -71.0560328044773)"
1702184000,17865,,02124,Mattapan,,,HOPKINS,ST,HOPKINS ST,"(42.2815666981834, -71.0846192540499)"
0700273001,157,,02127,South Boston,,,DORCHESTER,AV,DORCHESTER AV,"(42.3356028811493, -71.0569019254685)"
1702190000,16238,,02124,Mattapan,,872,MORTON,ST,872 MORTON ST,"(42.2812261611263, -71.0849335521598)"
1803114000,4053,,02126,Mattapan,,,HIAWATHA,RD,HIAWATHA RD,"(42.2770640639357, -71.0960952685489)"
1803108000,5083,,02126,Mattapan,,53,FOTTLER,RD,53 FOTTLER RD,"(42.2779217658664, -71.0967592511368)"
1405190000,6100,,02126,Mattapan,,698,WALK HILL,ST,698 WALK HILL ST,"(42.2780828043875, -71.0943017466367)"
1803145000,5000,,02126,Mattapan,,48,MATTAPAN,ST,48 MATTAPAN ST,"(42.2775717721575, -71.0955449246159)"
1803113000,4037,,02126,Mattapan,,58,HIAWATHA,RD,58 HIAWATHA RD,"(42.2771478374385, -71.0962579802145)"
1803143000,5000,,02126,Mattapan,,56 56A,MATTAPAN,ST,56 56A MATTAPAN ST,"(42.2777654508368, -71.09580435858)"
1202854000,790,,02121,Roxbury,,,GLENBURNE,ST,GLENBURNE ST,"(42.3154608169241, -71.0825825367936)"
1202861000,2892,,02121,Roxbury,,33,QUINCY,ST,33 QUINCY ST,"(42.3157035249633, -71.0813294302488)"
1400404000,800,,02121,Roxbury,,,DEVON,ST,DEVON ST,"(42.3096923743786, -71.0786227450179)"
1400179000,3222,,02121,Roxbury,,18,MASCOMA,ST,18 MASCOMA ST,"(42.3116394400314, -71.0753521983344)"
1400350000,3777,,02121,Roxbury,,126 124,INTERVALE,ST,126 124 INTERVALE ST,"(42.3101002381183, -71.0758465303067)"
1200874000,321,,02119,Roxbury,,,EDGEWOOD,ST,EDGEWOOD ST,"(42.3184215825217, -71.0797587875537)"
1200464001,476,,02119,Roxbury,,,WAVERLY,ST,WAVERLY ST,"(42.3198028630739, -71.0782069004809)"
1701544000,3600,,02124,Dorchester,,38,COLONIAL,AV,38 COLONIAL AV,"(42.2903411425686, -71.076471048574)"
1701545000,3600,,02124,Dorchester,,36,COLONIAL,AV,36 COLONIAL AV,"(42.2903704619708, -71.0763433050427)"
1400342000,2911,,02121,Roxbury,,,LAWRENCE,AV,LAWRENCE AV,"(42.3105148204681, -71.074723755131)"
1200933020,2400,,02119,Roxbury,,74 76,MAYWOOD,ST,74 76 MAYWOOD ST,"(42.3169205265125, -71.0794572132206)"
1400160000,2715,,02121,Roxbury,,,MASCOMA,ST,MASCOMA ST,"(42.3120550501038, -71.0749330844217)"
1400479000,250,,02121,Roxbury,,,BRUNSWICK,ST,BRUNSWICK ST,"(42.310457820461, -71.0798026918804)"
1400513002,318,,02121,Roxbury,,,INTERVALE,ST,INTERVALE ST,"(42.3110047614583, -71.079419627116)"
1202662000,2798,,02121,Roxbury,,19,INTERVALE,ST,19 INTERVALE ST,"(42.3120438272752, -71.0815333989463)"
1200092000,2898,,02119,Roxbury,,,WINTHROP,ST,WINTHROP ST,"(42.3260218436099, -71.0814778667227)"
0800536000,3424,,02119,Roxbury,,51,MAGAZINE,ST,51 MAGAZINE ST,"(42.3260613191498, -71.0722043617861)"
1300403000,1000,,02125,Roxbury,,8,FAIRBURY,ST,8 FAIRBURY ST,"(42.3189682171384, -71.0773123436315)"
1300404000,1116,,02125,Roxbury,,6,FAIRBURY,ST,6 FAIRBURY ST,"(42.3189628090054, -71.0773835761138)"
0800019000,2297,,02125,Roxbury,,,ROBEY,ST,ROBEY ST,"(42.3209814121093, -71.0688584017985)"
0802937000,1217,,02119,Roxbury,,65,BLUE HILL,AV,65 BLUE HILL AV,"(42.323096453861, -71.0767628237836)"
0802782000,6573,,02119,Roxbury,,,MT PLEASANT,AV,MT PLEASANT AV,"(42.3249571508627, -71.0777276987127)"
0800278000,1479,,02119,Roxbury,,,BURRELL,ST,BURRELL ST,"(42.3238502327781, -71.0685199813847)"
0803175000,2280,,02125,Roxbury,,11 HF,W COTTAGE,ST,11 HF W COTTAGE ST,"(42.3212553673977, -71.0732565071754)"
0800515000,1500,,02119,Roxbury,,,GEORGE,ST,GEORGE ST,"(42.3251652321655, -71.0714889843852)"
0703831000,91,,02125,Dorchester,,,GENE,ST,GENE ST,"(42.3193366858446, -71.065117484424)"
0703670000,330,,02125,Dorchester,,,HUMPHREYS,PL,HUMPHREYS PL,"(42.3199005419524, -71.0682099709928)"
0800041000,3438,,02125,Roxbury,,,CLIFTON,ST,CLIFTON ST,"(42.3214042927216, -71.0699505453522)"
0703758020,1190,,02125,Dorchester,,,CAWFIELD,ST,CAWFIELD ST,"(42.3198635355643, -71.0638781817857)"
1300462000,2555,,02125,Roxbury,,14,DEWEY,ST,14 DEWEY ST,"(42.3169375863376, -71.0772766475117)"
1300216000,2920,,02125,Roxbury,,34,FOLSOM,ST,34 FOLSOM ST,"(42.3179231686173, -71.0721325188609)"
1300455000,2416,,02119,Roxbury,,,ADRIAN,ST,ADRIAN ST,"(42.31761072787, -71.076822905802)"
1300065000,11210,,02125,Roxbury,,581,DUDLEY,ST,581 DUDLEY ST,"(42.3204907547753, -71.0720377575443)"
1300859000,2159,,02121,Roxbury,,170 A,QUINCY,ST,170 A QUINCY ST,"(42.3134121307454, -71.075659469976)"
1300591000,3055,,02125,Roxbury,,,WOODCLIFF,ST,WOODCLIFF ST,"(42.3157514358351, -71.0750216312839)"
1400629000,3842,,02121,Roxbury,,156,STANWOOD,ST,156 STANWOOD ST,"(42.3074644746025, -71.0768667504763)"
1401459000,2645,,02121,Dorchester,,6,ARVALE,RD,6 ARVALE RD,"(42.2997131737825, -71.0748345209772)"
1703205000,430,,02124,Dorchester,,,CODMAN HILL,AV,CODMAN HILL AV,"(42.2796486339763, -71.073625043789)"
1701746000,1826,,02124,Dorchester,,,WASHINGTON,ST,WASHINGTON ST,"(42.2854814041728, -71.0713956814262)"
1701323000,6906,,02124,Dorchester,,6,EUCLID,ST,6 EUCLID ST,"(42.2883026612325, -71.0716761484022)"
1701307000,9521,,02124,Dorchester,,661 663,WASHINGTON,ST,661 663 WASHINGTON ST,"(42.2884359424873, -71.0714159031988)"
1300578001,255,,02125,Roxbury,,,HOWARD,AV,HOWARD AV,"(42.3149804459775, -71.0750893058633)"
0903597000,2037,,02119,Roxbury,,25,LAMBERT,AV,25 LAMBERT AV,"(42.3279905072157, -71.0899416727042)"
0903525000,6440,,02119,Roxbury,,20,CENTRE,ST,20 CENTRE ST,"(42.3294501911285, -71.0925708609454)"
0903457000,1490,,02119,Roxbury,,41,LINWOOD,ST,41 LINWOOD ST,"(42.3284175373679, -71.0943119784519)"
0903458000,1490,,02119,Roxbury,,43,LINWOOD,ST,43 LINWOOD ST,"(42.3284409990951, -71.0943792571934)"
0903459000,1560,,02119,Roxbury,,45,LINWOOD,ST,45 LINWOOD ST,"(42.3284615462803, -71.0944507653145)"
0903336000,16494,,02119,Roxbury,Commercial,183,ROXBURY,ST,183 ROXBURY ST,"(42.3304891344013, -71.0906027544488)"
1100913000,3502,,02119,Roxbury,Commercial,2849,WASHINGTON,ST,2849 WASHINGTON ST,"(42.320860972447, -71.0934768498806)"
1001125000,12043,,02120,Jamaica Plain,,,PROSPECT,ST,PROSPECT ST,"(42.3289111897855, -71.0997256677149)"
0903741000,3040,,02119,Roxbury,,2 4,THORNTON,ST,2 4 THORNTON ST,"(42.326422972194, -71.0887723120972)"
1300480000,2788,,02125,Roxbury,,34,DEWEY,ST,34 DEWEY ST,"(42.3168291855177, -71.0761085071988)"
1300182000,8475,,02125,Roxbury,,6,HARTFORD,TE,6 HARTFORD TE,"(42.3183298534105, -71.0733647762569)"
0802426040,9068,,02119,Roxbury,,,HARRISON,AV,HARRISON AV,"(42.3319734542451, -71.0802319857001)"
0601788000,1380,,02127,South Boston,,275 277,BOLTON,ST,275 277 BOLTON ST,"(42.3372476548412, -71.045715586075)"
0903265001,4405,,02119,Roxbury,,2,PUTNAM,PL,2 PUTNAM PL,"(42.3300629126591, -71.0882256030122)"
1501991000,4081,,02125,Dorchester,,341,COLUMBIA,RD,341 COLUMBIA RD,"(42.3102153798236, -71.0716238509297)"
0903462000,6440,,02119,Roxbury,,66,CENTRE,ST,66 CENTRE ST,"(42.3288441601618, -71.0943855186038)"
0902431000,8067,,02119,Roxbury,,2147 2149,WASHINGTON,ST,2147 2149 WASHINGTON ST,"(42.331860795306, -71.0824853859366)"
2011087000,7200,,02132,West Roxbury,,,CHERRY,RD,CHERRY RD,"(42.2639528496868, -71.1609018609498)"
2011093000,7156,,02132,West Roxbury,,,WALNUT,RD,WALNUT RD,"(42.2636832906481, -71.1611985389527)"
0302865000,2031,,02108,Central,Commercial,20,CITY HALL,AV,20 CITY HALL AV,"(42.3581188062222, -71.0588779813841)"
1101646000,4095,,02119,Roxbury,,7,WALDREN,RD,7 WALDREN RD,"(42.3157216716279, -71.0952363168819)"
2102645000,16392,,02135,Allston/Brighton,,,EUSTON,RD,EUSTON RD,"(42.3426309238471, -71.1475296198622)"
0106316000,2500,,02128,East Boston,,217,PARIS,ST,217 PARIS ST,"(42.3746876258878, -71.034605116005)"
2204094000,11000,,02135,Allston/Brighton,Residential 2 Family,16,MALBERT,RD,16 MALBERT RD,"(42.3499210123475, -71.1590467594591)"
0301998000,1687,,02113,Central,,49 49R,CHARTER,ST,49 49R CHARTER ST,"(42.3673330589453, -71.0545318389714)"
0106284000,4453,,02128,East Boston,,6,CHELSEA,TE,6 CHELSEA TE,"(42.3735764117326, -71.0352661513085)"
0105935000,10486,,02128,East Boston,Commercial,280 282,MERIDIAN,ST,280 282 MERIDIAN ST,"(42.3765144506864, -71.0394919598428)"
2205666000,5931,,02135,Allston/Brighton,,,KNOWLES,ST,KNOWLES ST,"(42.3408754221948, -71.1666189513824)"
1802645000,14000,,02126,Mattapan,,,ALABAMA,ST,ALABAMA ST,"(42.2741222650067, -71.1037294547497)"
1100852000,960,,02119,Roxbury,,305,HIGHLAND,ST,305 HIGHLAND ST,"(42.3246871290797, -71.0974786294216)"
1809177000,8224,,02136,Hyde Park,,,WALNUT,ST,WALNUT ST,"(42.25282915238, -71.1210134122924)"
0100557001,486,,02128,East Boston,,,WORDSWORTH,ST,WORDSWORTH ST,"(42.3846628162769, -71.0153497354622)"
2102532000,4356,,02135,Allston/Brighton,,,SIDLAW,RD,SIDLAW RD,"(42.3401690771061, -71.1531895332802)"
2100872000,851,,02134,Allston/Brighton,,,GLENVILLE,AV,GLENVILLE AV,"(42.3501527904897, -71.1329249335319)"
1807245000,2999,,02131,Hyde Park,,,PLEASANTVIEW,ST,PLEASANTVIEW ST,"(42.273921813752, -71.1112803542648)"
1807314004,22111,,02136,Hyde Park,,,COLLINS,ST,COLLINS ST,"(42.2715164308711, -71.1167900188481)"
1401524000,3651,,02121,Dorchester,,,RIPLEY,RD,RIPLEY RD,"(42.2984287353618, -71.0762572384946)"
1403658000,5827,,02124,Mattapan,,140,WOODROW,AV,140 WOODROW AV,"(42.2867446810664, -71.0848382059457)"
1600008001,19832,,02122,Dorchester,,,FREEPORT,ST,FREEPORT ST,"(42.3052016148415, -71.0523299043311)"
1604329000,33362,,02124,Dorchester,Wetlands,,HALLET,ST,HALLET ST,"(42.2783277641374, -71.0496810857716)"
1700102000,8850,,02124,Dorchester,,405,WASHINGTON,ST,405 WASHINGTON ST,"(42.2975360137437, -71.0729048133324)"
1102928050,5542,,02130,Jamaica Plain,,,FOREST HILLS,ST,FOREST HILLS ST,"(42.3042095323784, -71.1040467444746)"
1100138000,9000,,02119,Roxbury,,,LAMBERT,AV,LAMBERT AV,"(42.3264793572523, -71.0915406504396)"
1100500000,9810,,02119,Roxbury,,72,FORT,AV,72 FORT AV,"(42.325874745659, -71.096111334776)"
1100500001,8400,,02119,Roxbury,,66,FORT,AV,66 FORT AV,"(42.3261934044426, -71.0958537709661)"
1100482000,40270,,02119,Roxbury,,184,HIGHLAND,ST,184 HIGHLAND ST,"(42.323576739944, -71.0928115318134)"
1100486000,4282,,02119,Roxbury,,17,FULDA,ST,17 FULDA ST,"(42.3231285102893, -71.0927999510097)"
1100198000,5849,,02119,Roxbury,,93,HAWTHORNE,ST,93 HAWTHORNE ST,"(42.3238479917705, -71.0922546335688)"
1100370000,1588,,02119,Roxbury,,7 9HF,MARCELLA,ST,7 9HF MARCELLA ST,"(42.3212495267167, -71.0937108913612)"
1100109000,7477,,02119,Roxbury,,,CEDAR,ST,CEDAR ST,"(42.3274566168881, -71.0931888954816)"
1100110000,7643,,02119,Roxbury,,,CEDAR,ST,CEDAR ST,"(42.3275902501267, -71.093450861138)"
1100113000,3949,,02119,Roxbury,,,CEDAR,ST,CEDAR ST,"(42.3273820842631, -71.0934411042594)"
1100730000,2100,,02119,Roxbury,,131,CENTRE,ST,131 CENTRE ST,"(42.32690555408, -71.0965020555984)"
1100731000,2044,,02119,Roxbury,,133,CENTRE,ST,133 CENTRE ST,"(42.326856645461, -71.0965267866568)"
1100242000,2297,,02119,Roxbury,,4,VALENTINE,ST,4 VALENTINE ST,"(42.3219786552133, -71.0921448878404)"
1100243000,2305,,02119,Roxbury,,6,VALENTINE,ST,6 VALENTINE ST,"(42.3220769159052, -71.0921995535431)"
2000673000,4164,,02131,Roslindale,,8,SCHUBERT,ST,8 SCHUBERT ST,"(42.2762737384002, -71.1402369478543)"
1100536000,6965,,02119,Roxbury,,,THWING,ST,THWING ST,"(42.3237058895358, -71.0938941768584)"
1100696000,4000,,02119,Roxbury,,112,CEDAR,ST,112 CEDAR ST,"(42.3268190752335, -71.0934972134772)"
1100829000,1844,,02119,Roxbury,,88,MARCELLA,ST,88 MARCELLA ST,"(42.3239271821198, -71.0959878302522)"
1100830000,1536,,02119,Roxbury,,86,MARCELLA,ST,86 MARCELLA ST,"(42.3238515247675, -71.0959222196476)"
1100831000,1370,,02119,Roxbury,,84,MARCELLA,ST,84 MARCELLA ST,"(42.3237794054065, -71.095857417657)"
1100559000,4342,,02119,Roxbury,,75,MARCELLA,ST,75 MARCELLA ST,"(42.3236696864121, -71.0953221776616)"
1100818000,1795,,02119,Roxbury,,110,MARCELLA,ST,110 MARCELLA ST,"(42.3244056796164, -71.0965157323426)"
1100819000,1738,,02119,Roxbury,,108,MARCELLA,ST,108 MARCELLA ST,"(42.3243657949405, -71.0964744076771)"
2010341000,19784,,02132,West Roxbury,,2667,CENTRE,ST,2667 CENTRE ST,"(42.2595673197395, -71.1637413143124)"
1100537000,8400,,02119,Roxbury,,,THWING,ST,THWING ST,"(42.3241899071332, -71.0954057704757)"
1100511000,5708,,02119,Roxbury,,,BEECH GLEN,ST,BEECH GLEN ST,"(42.3248673022815, -71.0959163469953)"
1200425000,4865,,02119,Roxbury,,29,ALASKA,ST,29 ALASKA ST,"(42.3207688260737, -71.0785170957408)"
1801101000,6250,,02126,Mattapan,,,REGIS,RD,REGIS RD,"(42.2707903976584, -71.0953540210617)"
1903941001,16972,,02131,Roslindale,,,POPLAR,ST,POPLAR ST,"(42.279321725306, -71.1235584876752)"
1904056000,4500,,02131,Roslindale,,,WRIGHT,ST,WRIGHT ST,"(42.2825014482303, -71.1251462037333)"
2002898000,10000,,02132,West Roxbury,,,THRUSH,ST,THRUSH ST,"(42.2711292492384, -71.1510487656661)"
1800348000,5704,,02126,Mattapan,,1 5,HOPKINS,PL,1 5 HOPKINS PL,"(42.2708974066063, -71.0901763579248)"
1100840000,3747,,02119,Roxbury,,273,HIGHLAND,ST,273 HIGHLAND ST,"(42.3240367156013, -71.0965042609627)"
1100841000,1592,,02119,Roxbury,,275,HIGHLAND,ST,275 HIGHLAND ST,"(42.3240962256934, -71.0965801372264)"
1100842000,1592,,02119,Roxbury,,277,HIGHLAND,ST,277 HIGHLAND ST,"(42.3241321711016, -71.0966293144877)"
1100843000,1708,,02119,Roxbury,,279,HIGHLAND,ST,279 HIGHLAND ST,"(42.3241674057045, -71.0966789598365)"
1100844000,1629,,02119,Roxbury,,281 281A,HIGHLAND,ST,281 281A HIGHLAND ST,"(42.3242034527901, -71.0967272747653)"
1100845000,1640,,02119,Roxbury,,283,HIGHLAND,ST,283 HIGHLAND ST,"(42.3242387066426, -71.0967768755782)"
1100231000,5376,,02119,Roxbury,,2751,WASHINGTON,ST,2751 WASHINGTON ST,"(42.3226777037879, -71.0910112237579)"
1100412000,3886,,02119,Roxbury,,16 18,VALE,ST,16 18 VALE ST,"(42.321705231438, -71.0939245060739)"
1100413000,3182,,02119,Roxbury,,12,VALE,ST,12 VALE ST,"(42.3216151087616, -71.0937882418014)"
1100433000,1375,,02119,Roxbury,,78,FULDA,ST,78 FULDA ST,"(42.3226477738586, -71.0946952364261)"
1100434000,1300,,02119,Roxbury,,76,FULDA,ST,76 FULDA ST,"(42.3226254041478, -71.094576929678)"
1100434001,1435,,02119,Roxbury,,74,FULDA,ST,74 FULDA ST,"(42.3226179999501, -71.0944562466981)"
1100435000,2029,,02119,Roxbury,,,FULDA,ST,FULDA ST,"(42.3226758287898, -71.0934981089392)"
1100436000,1229,,02119,Roxbury,,35,VALENTINE,ST,35 VALENTINE ST,"(42.3226224720178, -71.0933980438677)"
1100437000,1149,,02119,Roxbury,,33,VALENTINE,ST,33 VALENTINE ST,"(42.3225772075344, -71.0933393945608)"
1100438000,1152,,02119,Roxbury,,31,VALENTINE,ST,31 VALENTINE ST,"(42.3225334181012, -71.0932826600551)"
1100439000,1156,,02119,Roxbury,,29,VALENTINE,ST,29 VALENTINE ST,"(42.3224896199588, -71.0932259167731)"
1100440000,1159,,02119,Roxbury,,27,VALENTINE,ST,27 VALENTINE ST,"(42.3224458185438, -71.0931691662016)"
1100441000,1162,,02119,Roxbury,,25,VALENTINE,ST,25 VALENTINE ST,"(42.3224020055154, -71.0931124055117)"
1100442000,1165,,02119,Roxbury,,23,VALENTINE,ST,23 VALENTINE ST,"(42.3223579100917, -71.0930561199499)"
1100443000,1169,,02119,Roxbury,,21,VALENTINE,ST,21 VALENTINE ST,"(42.3223137050663, -71.0929997321936)"
1100444000,1192,,02119,Roxbury,,19,VALENTINE,ST,19 VALENTINE ST,"(42.3222691562293, -71.0929422668493)"
1100445000,912,,02119,Roxbury,,24,VALENTINE,ST,24 VALENTINE ST,"(42.3224976182121, -71.0928568191566)"
1100446000,911,,02119,Roxbury,,26,VALENTINE,ST,26 VALENTINE ST,"(42.3225374247403, -71.0929096347945)"
1100447000,910,,02119,Roxbury,,28,VALENTINE,ST,28 VALENTINE ST,"(42.3225734349609, -71.092956648642)"
1100448000,1936,,02119,Roxbury,,,VALENTINE,ST,VALENTINE ST,"(42.3226447416408, -71.0930612586442)"
1804906000,9863,,02131,Roslindale,,,POPLAR,ST,POPLAR ST,"(42.2774353122357, -71.1255548988691)"
1100813000,3433,,02119,Roxbury,,120,MARCELLA,ST,120 MARCELLA ST,"(42.3246229339028, -71.096773255935)"
1100814000,1848,,02119,Roxbury,,118,MARCELLA,ST,118 MARCELLA ST,"(42.3245922063458, -71.0967045382975)"
1100816000,1909,,02119,Roxbury,,114,MARCELLA,ST,114 MARCELLA ST,"(42.3244907224038, -71.0966063842508)"
1100817000,1852,,02119,Roxbury,,112,MARCELLA,ST,112 MARCELLA ST,"(42.3244464879863, -71.0965598973836)"
1100466000,1747,,02119,Roxbury,,20,VALENTINE,ST,20 VALENTINE ST,"(42.3224323586767, -71.0926995646752)"
1100467000,1445,,02119,Roxbury,,22,VALENTINE,ST,22 VALENTINE ST,"(42.3224795222399, -71.0927635006015)"
1100834000,752,,02119,Roxbury,,255,HIGHLAND,ST,255 HIGHLAND ST,"(42.323733664497, -71.095997183932)"
1100835000,861,,02119,Roxbury,,257,HIGHLAND,ST,257 HIGHLAND ST,"(42.3237637815448, -71.0960456505911)"
1100836000,970,,02119,Roxbury,,259,HIGHLAND,ST,259 HIGHLAND ST,"(42.3237948713618, -71.0960966882394)"
1100571000,3000,,02119,Roxbury,,121,MARCELLA,ST,121 MARCELLA ST,"(42.3246166248547, -71.0961205617229)"
1100572000,2746,,02119,Roxbury,,123,MARCELLA,ST,123 MARCELLA ST,"(42.3246889652281, -71.0961690893035)"
1100573000,2804,,02119,Roxbury,,125 125R,MARCELLA,ST,125 125R MARCELLA ST,"(42.3247635073803, -71.0962234840129)"
1100558000,4225,,02119,Roxbury,,237,HIGHLAND,ST,237 HIGHLAND ST,"(42.3235778495757, -71.0952743508356)"
1100451000,2565,,02119,Roxbury,,18,FULDA,ST,18 FULDA ST,"(42.3228286986292, -71.0924689145091)"
1100452000,2542,,02119,Roxbury,,16,FULDA,ST,16 FULDA ST,"(42.3228861267194, -71.0923788523156)"
1100416000,4839,,02119,Roxbury,,,VALE,ST,VALE ST,"(42.3224219814232, -71.0942332153647)"
0703510000,1140,,02125,Dorchester,,,WILLOW,CT,WILLOW CT,"(42.3241427186384, -71.0635806588511)"
0603337010,4081,,02127,South Boston,,,BARNARD,PL,BARNARD PL,"(42.3369630135727, -71.0391046004364)"
0903213000,4050,,02119,Roxbury,,22,KENILWORTH,ST,22 KENILWORTH ST,"(42.3285434695936, -71.0872596439402)"
1101448000,2955,,02130,Roxbury,,19,CHILCOTT,PL,19 CHILCOTT PL,"(42.3129920782979, -71.099550199391)"
0800201000,4957,,02119,Roxbury,,530,DUDLEY,ST,530 DUDLEY ST,"(42.3221587102147, -71.0722038607887)"
0800202000,2783,,02119,Roxbury,,526 528,DUDLEY,ST,526 528 DUDLEY ST,"(42.3222429155725, -71.0723252906232)"
1100247000,5264,,02119,Roxbury,,146,THORNTON,ST,146 THORNTON ST,"(42.3222834960944, -71.0921367283318)"
1200088000,3000,,02119,Roxbury,,21,WINTHROP,ST,21 WINTHROP ST,"(42.3261910945524, -71.0821176345588)"
1200089000,3000,,02119,Roxbury,,23,WINTHROP,ST,23 WINTHROP ST,"(42.3261655475931, -71.0820037472929)"
2001012000,4323,,02131,Roslindale,,,HILLOCK,ST,HILLOCK ST,"(42.283463485784, -71.1405621309614)"
1800805000,3526,,02126,Mattapan,,36,MILDRED,AV,36 MILDRED AV,"(42.2771057523489, -71.0910930885214)"
1800806000,3523,,02126,Mattapan,,34,MILDRED,AV,34 MILDRED AV,"(42.2770154185925, -71.0911757270973)"
1800566000,5320,,02126,Mattapan,,,VIOLET,ST,VIOLET ST,"(42.2749929337028, -71.0901352303666)"
1800567000,5175,,02126,Mattapan,,,VIOLET,ST,VIOLET ST,"(42.2749238010213, -71.0899980506976)"
1802032000,4000,,02126,Mattapan,,,HARMON,ST,HARMON ST,"(42.2700166567376, -71.1021688252017)"
1802033000,4000,,02126,Mattapan,,,HARMON,ST,HARMON ST,"(42.2699244465198, -71.1022436039939)"
1802034000,4000,,02126,Mattapan,,,HARMON,ST,HARMON ST,"(42.2698248919782, -71.1023251101051)"
1801709000,6884,,02126,Mattapan,,569,RIVER,ST,569 RIVER ST,"(42.2669149059815, -71.0965770217512)"
1903492001,461,,02131,Roslindale,,3900,WASHINGTON,ST,3900 WASHINGTON ST,"(42.2953094482496, -71.1185230845854)"
1202508000,7389,,02121,Roxbury,,42,GEORGIA,ST,42 GEORGIA ST,"(42.3097832791121, -71.0844081679304)"
1100237000,5509,,02119,Roxbury,Buildable,2777 2777R,WASHINGTON,ST,2777 2777R WASHINGTON ST,"(42.322196342204, -71.0916723250971)"
1101703000,10077,,02119,Roxbury,,24,WESTMINSTER,AV,24 WESTMINSTER AV,"(42.3163088442917, -71.0949323494398)"
1202746000,5234,,02121,Roxbury,,343 343A,BLUE HILL,AV,343 343A BLUE HILL AV,"(42.312748206598, -71.0804238350969)"
1808517022,5700,,02136,Hyde Park,,95,WINDHAM,RD,95 WINDHAM RD,"(42.2692052335226, -71.1255549605702)"
1808517023,5700,,02136,Hyde Park,,99,WINDHAM,RD,99 WINDHAM RD,"(42.2690663571282, -71.1254587096767)"
1808517024,5100,,02136,Hyde Park,,103,WINDHAM,RD,103 WINDHAM RD,"(42.2689347951008, -71.12536753057)"
1808517025,5100,,02136,Hyde Park,,107,WINDHAM,RD,107 WINDHAM RD,"(42.2688106005462, -71.1252813277811)"
2001013000,1895,,02131,Roslindale,,,HILLOCK,ST,HILLOCK ST,"(42.2833261791439, -71.1404740767031)"
0103365000,8750,,02128,East Boston,,,CONDOR,ST,CONDOR ST,"(42.3824010473997, -71.0348046548287)"
1903734000,2762,,02131,Roslindale,,,JOHNSWOOD,RD,JOHNSWOOD RD,"(42.2826195937721, -71.1232785425255)"
1903733000,2763,,02131,Roslindale,,,JOHNSWOOD,RD,JOHNSWOOD RD,"(42.2827102678898, -71.1234165641844)"
1100741000,2270,,02119,Roxbury,,5,NEW HEATH,ST,5 NEW HEATH ST,"(42.3264173913194, -71.0968390158872)"
1100742000,1953,,02119,Roxbury,,7,NEW HEATH,ST,7 NEW HEATH ST,"(42.3264310177853, -71.0969250869492)"
1101480000,2051,,02119,Roxbury,,58 60,SCHOOL,ST,58 60 SCHOOL ST,"(42.31370717445, -71.0984315128123)"
1101139000,2420,,02119,Roxbury,,,AMORY,ST,AMORY ST,"(42.3195749323284, -71.099934891834)"
1101140000,3210,,02119,Roxbury,,,AMORY,ST,AMORY ST,"(42.3196167973735, -71.099773914948)"
1103603000,2455,,02130,Roslindale,,3 5,WOODLAWN,ST,3 5 WOODLAWN ST,"(42.2991587546544, -71.113512418022)"
1202810000,7346,,02121,Roxbury,,15 15A,HOLBORN,ST,15 15A HOLBORN ST,"(42.3149139419305, -71.0823905808007)"
1202811000,4376,,02121,Roxbury,,17,HOLBORN,ST,17 HOLBORN ST,"(42.3148743854219, -71.082132530466)"
1202844000,4905,,02121,Roxbury,,14 14A,HOLBORN,ST,14 14A HOLBORN ST,"(42.315232897214, -71.0821290798342)"
1203233000,4092,,02121,Roxbury,,181 191,HAROLD,ST,181 191 HAROLD ST,"(42.3149066985344, -71.0912154468981)"
1400372000,4274,,02121,Roxbury,,71 75,INTERVALE,ST,71 75 INTERVALE ST,"(42.3107027977361, -71.0783607478754)"
1400372020,2026,,02121,Roxbury,,77 79,INTERVALE,ST,77 79 INTERVALE ST,"(42.3106501781877, -71.0782311614484)"
1400376000,2661,,02121,Roxbury,,91,INTERVALE,ST,91 INTERVALE ST,"(42.3103767064359, -71.0775332468)"
1400376001,2624,,02121,Roxbury,,91 A,INTERVALE,ST,91 A INTERVALE ST,"(42.3103483367906, -71.0774551723456)"
1400141000,6434,,02121,Roxbury,,53,CEYLON,ST,53 CEYLON ST,"(42.3112864237741, -71.0726486814783)"
1401944000,5500,,02124,Roxbury,,27,WALES,ST,27 WALES ST,"(42.2970235330204, -71.0851068168828)"
1402227000,2555,,02124,Roxbury,,,HELEN,ST,HELEN ST,"(42.292981643216, -71.0802111287048)"
1401832000,6861,,02121,Roxbury,,52,GLENWAY,ST,52 GLENWAY ST,"(42.3008802562859, -71.0833296962033)"
1100376000,2329,,02119,Roxbury,,180,THORNTON,ST,180 THORNTON ST,"(42.3215481429404, -71.0932547218823)"
1100248000,3472,,02119,Roxbury,,144,THORNTON,ST,144 THORNTON ST,"(42.3223569042038, -71.0920333411132)"
1100250000,6640,,02119,Roxbury,,136,THORNTON,ST,136 THORNTON ST,"(42.3225174493218, -71.0918167385685)"
1200686000,2900,,02119,Roxbury,,10 12,WAKULLAH,ST,10 12 WAKULLAH ST,"(42.3223728009533, -71.0860540176339)"
1200687000,2800,,02119,Roxbury,,6 8,WAKULLAH,ST,6 8 WAKULLAH ST,"(42.3224354940459, -71.0860095692155)"
1201824000,1860,,02119,Roxbury,,59,HUMBOLDT,AV,59 HUMBOLDT AV,"(42.3186324121978, -71.0863912147673)"
1202107000,6385,,02121,Roxbury,,43 45,WENONAH,ST,43 45 WENONAH ST,"(42.313586382985, -71.0854518368794)"
1202130000,12212,,02121,Roxbury,,46,WENONAH,ST,46 WENONAH ST,"(42.3134319699155, -71.0859859443333)"
1201857000,1576,,02119,Roxbury,,27,HAROLD,ST,27 HAROLD ST,"(42.319559635395, -71.0883949409345)"
1700131000,3577,,02124,Dorchester,,84,HARVARD,ST,84 HARVARD ST,"(42.2970280631169, -71.0768153011211)"
1700082000,4800,,02124,Dorchester,,29,BRADLEE,ST,29 BRADLEE ST,"(42.297262967827, -71.0743089193039)"
1701381000,3700,,02124,Dorchester,,,TORREY,ST,TORREY ST,"(42.2872534378523, -71.0746054674691)"
1403562000,5266,,02124,Mattapan,,,MOUNTAIN,AV,MOUNTAIN AV,"(42.2846924977892, -71.0855769561885)"
1403695000,6652,,02124,Mattapan,,82,WOODROW,AV,82 WOODROW AV,"(42.2873932090843, -71.0816576274723)"
1403795000,7160,,02124,Mattapan,,,BALLOU,AV,BALLOU AV,"(42.284631963089, -71.0830613223704)"
1403796000,4306,,02124,Mattapan,,,BALLOU,AV,BALLOU AV,"(42.2847657763132, -71.0829728282592)"
1403797000,4270,,02124,Mattapan,,,BALLOU,AV,BALLOU AV,"(42.2848560948818, -71.0828847238777)"
1403798000,4234,,02124,Mattapan,,,BALLOU,AV,BALLOU AV,"(42.2849451196062, -71.0827985359623)"
1701753001,3890,,02124,Dorchester,,,ARMANDINE,ST,ARMANDINE ST,"(42.28503158941, -71.0721351079737)"
1701756000,10274,,02124,Dorchester,,29,ARMANDINE,ST,29 ARMANDINE ST,"(42.2850508290784, -71.0724799068351)"
1702766000,4677,,02124,Dorchester,,96 R98,ARMANDINE,ST,96 R98 ARMANDINE ST,"(42.2838021443924, -71.0749586783183)"
1702535000,6873,,02124,Mattapan,,106,SELDEN,ST,106 SELDEN ST,"(42.2805465731584, -71.0808956822552)"
1404256000,5420,,02124,Mattapan,,28,ANGELL,ST,28 ANGELL ST,"(42.2961360507128, -71.0889262786686)"
1404259000,5398,,02124,Mattapan,,22,ANGELL,ST,22 ANGELL ST,"(42.2958549817817, -71.0887054847034)"
1701693000,3280,,02124,Dorchester,,35,WENTWORTH,ST,35 WENTWORTH ST,"(42.287342665795, -71.0754376226313)"
1401556000,3234,,02121,Dorchester,,251 255,WASHINGTON,ST,251 255 WASHINGTON ST,"(42.3012160726193, -71.0769397141012)"
1700182001,1454,,02124,Dorchester,,,NORWELL,ST,NORWELL ST,"(42.2944091717599, -71.0782765361155)"
1700181000,2387,,02124,Dorchester,,,NORWELL,ST,NORWELL ST,"(42.2946725527739, -71.0783131772265)"
1603766000,3163,,02122,Dorchester,,,NAHANT,AV,NAHANT AV,"(42.2878526864468, -71.0524759760867)"
1702084000,3281,,02124,Mattapan,,,DYER,CT,DYER CT,"(42.2835150005923, -71.0813874943726)"
1702086000,8833,,02124,Mattapan,,6,DYER,CT,6 DYER CT,"(42.2832243071354, -71.0812970507064)"
1404487000,5000,,02124,Mattapan,,1085,BLUE HILL,AV,1085 BLUE HILL AV,"(42.287542819517, -71.0907763858544)"
1400295000,3217,,02121,Roxbury,,21,FERNBORO,ST,21 FERNBORO ST,"(42.3111768913442, -71.0776570487936)"
1400296000,3217,,02121,Roxbury,,23,FERNBORO,ST,23 FERNBORO ST,"(42.3110919268789, -71.0777188790873)"
1700345000,2211,,02124,Dorchester,,242 244,NORWELL,ST,242 244 NORWELL ST,"(42.2940742367645, -71.077773794051)"
1701654000,4232,,02124,Mattapan,,301,NORFOLK,ST,301 NORFOLK ST,"(42.2838177753779, -71.0830155224542)"
1701655000,3347,,02124,Mattapan,,303,NORFOLK,ST,303 NORFOLK ST,"(42.2837451060585, -71.0831173599679)"
1701657000,1719,,02124,Mattapan,,307 313,NORFOLK,ST,307 313 NORFOLK ST,"(42.2835928556321, -71.0833296116706)"
1404961000,4092,,02126,Mattapan,,36,GOODALE,RD,36 GOODALE RD,"(42.283342575627, -71.0934230318867)"
1403923000,10824,,02126,Mattapan,,83,WILDWOOD,ST,83 WILDWOOD ST,"(42.2821454722874, -71.0904263017284)"
1404736000,2731,,02126,Mattapan,,47,DEERING,RD,47 DEERING RD,"(42.2845423416656, -71.0935024177949)"
1701380000,2500,,02124,Dorchester,,49,CHIPMAN,ST,49 CHIPMAN ST,"(42.2872064533912, -71.0744297301374)"
1701419000,4855,,02124,Dorchester,,45,NORFOLK,ST,45 NORFOLK ST,"(42.2894490897886, -71.0731336764642)"
1402947000,5112,,02124,Mattapan,,,CALLENDER,ST,CALLENDER ST,"(42.2890059209462, -71.079667688126)"
1701647000,3301,,02124,Mattapan,,275 279,NORFOLK,ST,275 279 NORFOLK ST,"(42.2841690719874, -71.0819362159291)"
1701606000,5822,,02124,Mattapan,,9,MILTON,AV,9 MILTON AV,"(42.2875212725718, -71.0792289641633)"
1701607000,2436,,02124,Mattapan,,11 15A,MILTON,AV,11 15A MILTON AV,"(42.2873596534236, -71.0790752587267)"
1701611000,4730,,02124,Mattapan,,175 177,NORFOLK,ST,175 177 NORFOLK ST,"(42.286979138494, -71.0793153422669)"
1701612000,2743,,02124,Mattapan,,9,BALINA,PL,9 BALINA PL,"(42.2870787666334, -71.079499007389)"
1701501000,2397,,02124,Dorchester,,1 5,WOODROW,AV,1 5 WOODROW AV,"(42.2882121311666, -71.0780446161873)"
1701508000,2644,,02124,Mattapan,,,WOODROW,AV,WOODROW AV,"(42.2882844569766, -71.0788798426244)"
1701656000,2443,,02124,Mattapan,,305 305B,NORFOLK,ST,305 305B NORFOLK ST,"(42.2836714639609, -71.0832216712769)"
1701597000,2644,,02124,Dorchester,,4 6,WOODROW,AV,4 6 WOODROW AV,"(42.2879065361201, -71.0783625364179)"
1701598000,2862,,02124,Dorchester,,2,WOODROW,AV,2 WOODROW AV,"(42.2878940538756, -71.0782139741014)"
1701599001,2707,,02124,Dorchester,,145 149,NORFOLK,ST,145 149 NORFOLK ST,"(42.2877445982294, -71.078451210827)"
1404566000,3794,,02124,Mattapan,,632,MORTON,ST,632 MORTON ST,"(42.2869864442567, -71.0933467177702)"
1701969000,6379,,02124,Mattapan,,180,NORFOLK,ST,180 NORFOLK ST,"(42.2863107813984, -71.079269071979)"
1701970000,4194,,02124,Mattapan,,,NORFOLK,ST,NORFOLK ST,"(42.2864096899343, -71.0791262029004)"
1702117000,5411,,02124,Mattapan,,270,NORFOLK,ST,270 NORFOLK ST,"(42.2839077496993, -71.0814364875934)"
1702079000,3046,,02124,Mattapan,,262,NORFOLK,ST,262 NORFOLK ST,"(42.2840494503782, -71.0812536793453)"
1702081000,5979,,02124,Mattapan,,11,CAPEN,ST,11 CAPEN ST,"(42.283725132219, -71.081227431099)"
1700166000,2376,,02124,Dorchester,,175,NORWELL,ST,175 NORWELL ST,"(42.2963947957244, -71.078592636578)"
1700168000,2409,,02124,Dorchester,,181 183,NORWELL,ST,181 183 NORWELL ST,"(42.2961897806138, -71.078560755284)"
1403789000,3117,,02124,Mattapan,,,JACOB,ST,JACOB ST,"(42.2861877749453, -71.0825667873576)"
1403754000,3110,,02124,Mattapan,,28 30,JONES,AV,28 30 JONES AV,"(42.2863273140406, -71.0825903586512)"
1403876000,5089,,02124,Mattapan,,14,HANNON,ST,14 HANNON ST,"(42.2817314908398, -71.085905892633)"
1403901000,6928,,02126,Mattapan,,11 15,FLINT,ST,11 15 FLINT ST,"(42.2808122505207, -71.0868582169988)"
1403902000,6893,,02126,Mattapan,,19 21,FLINT,ST,19 21 FLINT ST,"(42.2807076520144, -71.0866488137525)"
1403856000,2257,,02124,Mattapan,,348 350,NORFOLK,ST,348 350 NORFOLK ST,"(42.282814603782, -71.0844121315914)"
1403857000,1900,,02124,Mattapan,,346,NORFOLK,ST,346 NORFOLK ST,"(42.2829069872304, -71.0842949650828)"
1403766000,4064,,02124,Mattapan,,65,BALLOU,AV,65 BALLOU AV,"(42.2861095487603, -71.0821435805797)"
1700144000,4300,,02124,Dorchester,,94,HARVARD,ST,94 HARVARD ST,"(42.2968444603639, -71.0773573689283)"
1701315000,3447,,02124,Dorchester,,,TORREY,ST,TORREY ST,"(42.2875974900665, -71.0723701315008)"
1403624000,4441,,02124,Mattapan,,151,BALLOU,AV,151 BALLOU AV,"(42.2838040248403, -71.0846995301059)"
1403694000,6628,,02124,Mattapan,,86,WOODROW,AV,86 WOODROW AV,"(42.287361643245, -71.0817940487681)"
1403576000,3440,,02124,Mattapan,,,WILLOWWOOD,ST,WILLOWWOOD ST,"(42.2863190304206, -71.086178029175)"
1404346000,9664,,02124,Mattapan,,314,HARVARD,ST,314 HARVARD ST,"(42.2931343085612, -71.08937036015)"
1404275000,3214,,02124,Mattapan,,23,LORNE,ST,23 LORNE ST,"(42.29371042237, -71.0903274389591)"
1404289000,3214,,02124,Mattapan,,38 40,LORNE,ST,38 40 LORNE ST,"(42.2936685061429, -71.0910647711384)"
1404295000,3214,,02124,Mattapan,,14,LORNE,ST,14 LORNE ST,"(42.2933101210223, -71.090326050247)"
1404296000,3214,,02124,Mattapan,,12,LORNE,ST,12 LORNE ST,"(42.2932493745181, -71.0902005637182)"
1403818000,2992,,02124,Mattapan,,,BALLOU,AV,BALLOU AV,"(42.2866239324342, -71.0809398332841)"
1403714000,6337,,02124,Mattapan,,23,JONES,AV,23 JONES AV,"(42.2867712087272, -71.0825576234038)"
1403715000,6211,,02124,Mattapan,,27,JONES,AV,27 JONES AV,"(42.2867229917897, -71.0827247679223)"
1403709000,6346,,02124,Mattapan,,,JONES,AV,JONES AV,"(42.2869462065256, -71.0817769356348)"
1403710000,6422,,02124,Mattapan,,9,JONES,AV,9 JONES AV,"(42.2869095848267, -71.0819585179155)"
1404152000,9324,,02126,Mattapan,,523,NORFOLK,ST,523 NORFOLK ST,"(42.2788599579953, -71.0900034713688)"
1404131000,5010,,02126,Mattapan,,11,HOSMER,ST,11 HOSMER ST,"(42.2811783534357, -71.0916257120746)"
1404132000,620,,02126,Mattapan,,,HOSMER,ST,HOSMER ST,"(42.281132943936, -71.0915248981453)"
1403949000,5036,,02126,Mattapan,,9,LESTON,ST,9 LESTON ST,"(42.2834623551773, -71.0902655669481)"
1700685000,2796,,02124,Dorchester,,44,ASPINWALL,RD,44 ASPINWALL RD,"(42.2912848209584, -71.0741231206406)"
1403815000,3392,,02124,Mattapan,,,BALLOU,AV,BALLOU AV,"(42.2864038794399, -71.0811626399324)"
1400344000,4145,,02121,Roxbury,,269,MAGNOLIA,ST,269 MAGNOLIA ST,"(42.3101577921039, -71.0751406895181)"
1400495000,4604,,02121,Roxbury,,98 100,BRUNSWICK,ST,98 100 BRUNSWICK ST,"(42.3109136255493, -71.0796574526033)"
1403289000,3794,,02124,Mattapan,,183 193,WOODROW,AV,183 193 WOODROW AV,"(42.2865189840654, -71.087478550701)"
1403485000,2816,,02124,Mattapan,,214 208,WOODROW,AV,214 208 WOODROW AV,"(42.2859958530299, -71.0886278207081)"
1402357000,2950,,02121,Dorchester,,89,RADCLIFFE,ST,89 RADCLIFFE ST,"(42.2984198265114, -71.0783391268798)"
1402358000,3055,,02121,Dorchester,,,RADCLIFFE,ST,RADCLIFFE ST,"(42.2982938034326, -71.0783078232172)"
1402999000,3750,,02124,Mattapan,,93 95,WOODROW,AV,93 95 WOODROW AV,"(42.2877111284478, -71.0824027754969)"
1403000000,2600,,02124,Mattapan,,97,WOODROW,AV,97 WOODROW AV,"(42.2876617220252, -71.082559778266)"
1402841000,3450,,02124,Mattapan,,41 43,CALLENDER,ST,41 43 CALLENDER ST,"(42.2891638280759, -71.0804529141058)"
1402853000,2625,,02124,Mattapan,,87,CALLENDER,ST,87 CALLENDER ST,"(42.2887344891085, -71.0823821044557)"
1402853001,2650,,02124,Mattapan,,89,CALLENDER,ST,89 CALLENDER ST,"(42.2887157100265, -71.082468012646)"
1402449000,4872,,02121,Dorchester,,77 79,HARVARD,ST,77 79 HARVARD ST,"(42.2973734580679, -71.0767415400595)"
1402450000,4138,,02121,Dorchester,,81,HARVARD,ST,81 HARVARD ST,"(42.2973143726912, -71.0769036604541)"
1402325000,8810,,02121,Dorchester,,18 24,STANDISH,ST,18 24 STANDISH ST,"(42.2957384432011, -71.0789970514605)"
1402329000,5527,,02121,Dorchester,,,STANDISH,ST,STANDISH ST,"(42.2962376318426, -71.0791298260563)"
1402330000,12252,,02121,Dorchester,,114 122,HARVARD,ST,114 122 HARVARD ST,"(42.2964396425344, -71.079182378671)"
1402401000,3778,,02121,Dorchester,,20,ELMONT,ST,20 ELMONT ST,"(42.2983524933061, -71.0775784249294)"
1402029000,5166,,02124,Roxbury,,190,HARVARD,ST,190 HARVARD ST,"(42.2957710834888, -71.0841069959381)"
1402033000,5760,,02124,Roxbury,,182,HARVARD,ST,182 HARVARD ST,"(42.2958671005641, -71.08333686165)"
1402039000,8105,,02124,Roxbury,,168,HARVARD,ST,168 HARVARD ST,"(42.296037886434, -71.0822425359331)"
1402340000,2899,,02121,Dorchester,,,NORWELL,ST,NORWELL ST,"(42.2982330596971, -71.0785074467992)"
1402341000,2768,,02121,Dorchester,,116,NORWELL,ST,116 NORWELL ST,"(42.2983682396098, -71.0785330359299)"
1402343000,3510,,02121,Dorchester,,,NORWELL,ST,NORWELL ST,"(42.2986893720875, -71.0785769694813)"
1402344000,3348,,02121,Dorchester,,106,NORWELL,ST,106 NORWELL ST,"(42.298852666722, -71.0785904561314)"
1402345000,3285,,02121,Dorchester,,,NORWELL,ST,NORWELL ST,"(42.2990171009257, -71.0786075974169)"
1402640000,11443,,02121,Roxbury,,131,GLENWAY,ST,131 GLENWAY ST,"(42.298744149245, -71.0816472495429)"
1400714000,15000,,02121,Roxbury,,90,GENEVA,AV,90 GENEVA AV,"(42.3071428033781, -71.0792534298332)"
1401561000,3715,,02121,Dorchester,,259,WASHINGTON,ST,259 WASHINGTON ST,"(42.3010846623608, -71.0767735841662)"
1401651000,2683,,02121,Dorchester,,143,NORWELL,ST,143 NORWELL ST,"(42.2974947791169, -71.0787422338302)"
1401652000,2683,,02121,Dorchester,,147,NORWELL,ST,147 NORWELL ST,"(42.2973600301765, -71.0787221138891)"
1401657000,4528,,02121,Dorchester,,2 14,ERIE,ST,2 14 ERIE ST,"(42.3029626848451, -71.0788047176559)"
1401658000,2890,,02121,Dorchester,,8,GREENWOOD,ST,8 GREENWOOD ST,"(42.3027825475181, -71.0789207220442)"
1702085000,3091,,02124,Mattapan,,3,DYER,CT,3 DYER CT,"(42.2834854916692, -71.081519972011)"
1702014000,6252,,02124,Mattapan,,22,STANTON,ST,22 STANTON ST,"(42.2848466448813, -71.0795259405015)"
1700418000,4612,,02124,Dorchester,,78,SPENCER,ST,78 SPENCER ST,"(42.2944352386723, -71.0760673606857)"
1400665000,7495,,02121,Roxbury,,54,GENEVA,AV,54 GENEVA AV,"(42.3080685586399, -71.0803977570202)"
1400666000,23370,,02121,Roxbury,,48,GENEVA,AV,48 GENEVA AV,"(42.3082183759237, -71.0806185029554)"
1401385000,4926,,02121,Dorchester,,241,GENEVA,AV,241 GENEVA AV,"(42.3044560755034, -71.0732033598541)"
1401000000,2420,,02121,Roxbury,,10,MERRILL,ST,10 MERRILL ST,"(42.3031803430546, -71.0801288717984)"
1401019000,6290,,02121,Roxbury,,4,FENELON,ST,4 FENELON ST,"(42.3035097015049, -71.0789349640268)"
1400530000,4410,,02121,Roxbury,,38,INTERVALE,ST,38 INTERVALE ST,"(42.3116888589055, -71.0798054038509)"
1401194000,14172,,02121,Dorchester,,,WASHINGTON,ST,WASHINGTON ST,"(42.3020123897914, -71.077100962812)"
1401195000,9005,,02121,Dorchester,,,WASHINGTON,ST,WASHINGTON ST,"(42.3022433934621, -71.0772708454189)"
1401196000,4469,,02121,Dorchester,,220,WASHINGTON,ST,220 WASHINGTON ST,"(42.3023470678435, -71.0773625999254)"
1401197000,4428,,02121,Dorchester,,218,WASHINGTON,ST,218 WASHINGTON ST,"(42.3024206709296, -71.0774204543085)"
1401148000,4885,,02121,Dorchester,,,BOWDOIN,AV,BOWDOIN AV,"(42.302098502621, -71.0764590125317)"
1401708000,3410,,02121,Dorchester,,115 117,HARVARD,ST,115 117 HARVARD ST,"(42.2968231727772, -71.0791345451475)"
1402219000,3770,,02124,Roxbury,,17,HELEN,ST,17 HELEN ST,"(42.2931857328418, -71.0809606737545)"
1402220000,3765,,02124,Roxbury,,19,HELEN,ST,19 HELEN ST,"(42.2931580445137, -71.0811007426193)"
1402155000,4600,,02124,Roxbury,,29 27,BROWNING,AV,29 27 BROWNING AV,"(42.2942896109021, -71.0820543459402)"
1401700000,3746,,02121,Dorchester,,130,GREENWOOD,ST,130 GREENWOOD ST,"(42.2976045297132, -71.079345187555)"
1800516000,6526,,02126,Mattapan,,11,COOKSON,TE,11 COOKSON TE,"(42.272251108701, -71.0914490170473)"
1800532000,109675,,02126,Mattapan,,,COOKSON,TE,COOKSON TE,"(42.2729673010448, -71.0912311450625)"
1812628000,4975,,02136,Hyde Park,,,MANILA,AV,MANILA AV,"(42.2429144090815, -71.136314375678)"
1812629000,4925,,02136,Hyde Park,,,MANILA,AV,MANILA AV,"(42.2429703765229, -71.1364879580127)"
1802213000,4000,,02126,Mattapan,,,ORLANDO,ST,ORLANDO ST,"(42.2743817285273, -71.0995841990667)"
1802214000,4000,,02126,Mattapan,,,ORLANDO,ST,ORLANDO ST,"(42.2742964730069, -71.0996746313681)"
1804263000,5062,,02136,Hyde Park,,,PINEWOOD,ST,PINEWOOD ST,"(42.2675836323467, -71.1084600108197)"
1806245000,4802,,02131,Roslindale,,460 464,HYDE PARK,AV,460 464 HYDE PARK AV,"(42.2846609645469, -71.1186819722371)"
1808517035,6593,,02136,Hyde Park,,,SHERRIN,ST,SHERRIN ST,"(42.2674105032526, -71.1254080976683)"
1802110000,3295,,02126,Mattapan,,,CUMMINS,HW,CUMMINS HW,"(42.2710533104201, -71.1045228975483)"
1802111000,3759,,02126,Mattapan,,,CUMMINS,HW,CUMMINS HW,"(42.2710048388445, -71.1043830182103)"
1802112000,4233,,02126,Mattapan,,,CUMMINS,HW,CUMMINS HW,"(42.2709554569353, -71.1042475401921)"
1802147000,8611,,02126,Mattapan,,,WOODHAVEN,ST,WOODHAVEN ST,"(42.2732534849362, -71.0953612230126)"
1801802025,4000,,02126,Mattapan,Buildable (extra cost),,HOLLINGSWORTH,ST,HOLLINGSWORTH ST,"(42.2676056332634, -71.0993104826032)"
1801802026,4000,,02126,Mattapan,Buildable (extra cost),,HOLLINGSWORTH,ST,HOLLINGSWORTH ST,"(42.2676893945563, -71.0992171586886)"
1806661000,4180,,02131,Hyde Park,,,AMERICAN LEGION,HW,AMERICAN LEGION HW,"(42.2773286183042, -71.1161071428008)"
1806860000,5923,,02131,Hyde Park,,,WILMOT,ST,WILMOT ST,"(42.2769273078457, -71.1160612308705)"
1806861000,1071,,02131,Hyde Park,,,WILMOT,ST,WILMOT ST,"(42.2770291010258, -71.1159648592924)"
1803307000,5624,,02126,Mattapan,,,WABASH,ST,WABASH ST,"(42.2795980987102, -71.099592584323)"
1803299000,3711,,02126,Mattapan,,,WABASH,ST,WABASH ST,"(42.2793416335227, -71.0995218132063)"
1806847000,26866,,02131,Hyde Park,,,AMERICAN LEGION,HW,AMERICAN LEGION HW,"(42.2764519708643, -71.1162674958255)"
0104382000,9716,,02128,East Boston,Commercial,18,BARNES,AV,18 BARNES AV,"(42.386147988313, -71.0060361956577)"
1806348000,3223,,02131,Roslindale,,588,HYDE PARK,AV,588 HYDE PARK AV,"(42.2802001578262, -71.1186308408348)"
1809174000,7631,,02136,Hyde Park,,91 99,MAPLE,ST,91 99 MAPLE ST,"(42.2531895796877, -71.1202747103733)"
1402464000,6537,,02121,Roxbury,Commercial,8,OLD,RD,8 OLD RD,"(42.3030038990155, -71.08429354954)"
1402463000,7051,,02121,Roxbury,Commercial,14,ELLINGTON,ST,14 ELLINGTON ST,"(42.3027037398887, -71.0844799496046)"
1802796010,7127,,02136,Mattapan,,,ITASCA,ST,ITASCA ST,"(42.274098082224, -71.1015364248829)"
1802633000,6000,,02126,Mattapan,,,COLORADO,ST,COLORADO ST,"(42.274551159061, -71.1028325712656)"
1101358000,3150,,02130,Roxbury,,174 176,BOYLSTON,ST,174 176 BOYLSTON ST,"(42.315284018369, -71.102019516626)"
1101385000,3800,,02130,Roxbury,,23,DALRYMPLE,ST,23 DALRYMPLE ST,"(42.3155758671281, -71.1012963045292)"
1802767000,4000,,02126,Mattapan,,,ITASCA,ST,ITASCA ST,"(42.274894019231, -71.1007252427785)"
1202833000,3100,,02121,Roxbury,,7 9,QUINCY,ST,7 9 QUINCY ST,"(42.3159985679637, -71.0821805981361)"
1300733000,3438,,02121,Roxbury,,101 103,QUINCY,ST,101 103 QUINCY ST,"(42.3139629122511, -71.0779762400862)"
0103364000,8750,,02128,East Boston,,,CONDOR,ST,CONDOR ST,"(42.3824022501882, -71.0351740354741)"
0103366000,8750,,02128,East Boston,,,CONDOR,ST,CONDOR ST,"(42.3823997825261, -71.0344340494042)"
1500673000,3002,,02122,Dorchester,,424 428A,GENEVA,AV,424 428A GENEVA AV,"(42.3007970776626, -71.0667625321726)"
1300681000,2750,,02119,Roxbury,,238,BLUE HILL,AV,238 BLUE HILL AV,"(42.3164881388277, -71.0778137980397)"
1300683000,3613,,02119,Roxbury,,230 232A,BLUE HILL,AV,230 232A BLUE HILL AV,"(42.3167343674285, -71.0778410197235)"
1301302000,6164,,02125,Dorchester,,47,VIRGINIA,ST,47 VIRGINIA ST,"(42.3155811474245, -71.0686967397518)"
1301369000,3537,,02125,Dorchester,,1 3,EVERETT,AV,1 3 EVERETT AV,"(42.3159428363405, -71.0630636901524)"
1302555000,21638,,02125,Dorchester,,,SAVIN HILL,AV,SAVIN HILL AV,"(42.3118351995425, -71.0518825275436)"
1300593000,3200,,02125,Roxbury,,128,HOWARD,AV,128 HOWARD AV,"(42.3158858482689, -71.0751757125509)"
1300594000,2412,,02125,Roxbury,,124 126,HOWARD,AV,124 126 HOWARD AV,"(42.3159695224905, -71.0750979413014)"
0903642000,2898,,02119,Roxbury,,,MILLMONT,ST,MILLMONT ST,"(42.3282621902465, -71.0918429825407)"
0800029000,2247,,02125,Dorchester,,,ROBEY,ST,ROBEY ST,"(42.3210504927804, -71.068407918506)"
0800410000,2812,,02119,Roxbury,,,MARSHFIELD,ST,MARSHFIELD ST,"(42.3230538299797, -71.068994985232)"
0800279000,1500,,02119,Roxbury,,,BURRELL,ST,BURRELL ST,"(42.3238226217586, -71.0686040651567)"
0800280000,1596,,02119,Roxbury,,,BURRELL,ST,BURRELL ST,"(42.3237961953861, -71.0686865294604)"
0800285000,1872,,02119,Roxbury,,82,BURRELL,ST,82 BURRELL ST,"(42.3236709519419, -71.0690792001298)"
0903783000,5274,,02119,Roxbury,,2681 2683,WASHINGTON,ST,2681 2683 WASHINGTON ST,"(42.323822272128, -71.0894986980215)"
1301372000,8156,,02125,Dorchester,,11 A,EVERETT,AV,11 A EVERETT AV,"(42.3155756115591, -71.0632088817737)"
1301415000,4095,,02125,Dorchester,,,WINDERMERE,RD,WINDERMERE RD,"(42.315180223524, -71.0625115221421)"
0703788000,4599,,02125,Dorchester,,8,EASTMAN,ST,8 EASTMAN ST,"(42.3191564532983, -71.0637512565342)"
0800579000,2745,,02119,Roxbury,,123 125,GEORGE,ST,123 125 GEORGE ST,"(42.3244603492986, -71.071745895179)"
0800579001,6255,,02119,Roxbury,,127 133R,GEORGE,ST,127 133R GEORGE ST,"(42.3243231335364, -71.0716885606485)"
0800599000,9000,,02119,Roxbury,,,LANGDON,ST,LANGDON ST,"(42.3241886692322, -71.0722017251418)"
0800600000,3000,,02119,Roxbury,,35,LANGDON,ST,35 LANGDON ST,"(42.3242512061019, -71.0720418059332)"
0800601000,6000,,02119,Roxbury,,37 43,LANGDON,ST,37 43 LANGDON ST,"(42.3242997957435, -71.0719199538085)"
1501765000,1933,,02125,Dorchester,,35,COLEMAN,ST,35 COLEMAN ST,"(42.3084360301978, -71.0662941652549)"
1501766000,1933,,02125,Dorchester,,37,COLEMAN,ST,37 COLEMAN ST,"(42.3083962427779, -71.0663454577306)"
1500951000,2111,,02122,Dorchester,,151,BOWDOIN,ST,151 BOWDOIN ST,"(42.3037366568205, -71.0702960970871)"
1500952010,958,,02122,Dorchester,,,TEBROC,ST,TEBROC ST,"(42.303618042243, -71.0702206212266)"
1500495000,4388,,02122,Dorchester,,72,LINDEN,ST,72 LINDEN ST,"(42.3053301902417, -71.0610783385194)"
1501103000,4022,,02122,Dorchester,,51,RIDGEWOOD,ST,51 RIDGEWOOD ST,"(42.3020238093171, -71.0652513406245)"
1502771000,5552,,02125,Dorchester,,24,TRULL,ST,24 TRULL ST,"(42.3116364347486, -71.0667467395176)"
1502475000,8720,,02125,Dorchester,,83,BIRD,ST,83 BIRD ST,"(42.3138495007113, -71.0702045878731)"
1500700000,6216,,02124,Dorchester,,125,WESTVILLE,ST,125 WESTVILLE ST,"(42.3008118298067, -71.067429127306)"
0800405000,2086,,02119,Roxbury,,,MARSHFIELD,ST,MARSHFIELD ST,"(42.3232355808288, -71.0686107871772)"
0800406000,1773,,02119,Roxbury,,,MARSHFIELD,ST,MARSHFIELD ST,"(42.3231940901227, -71.0686857364958)"
0800407000,1813,,02119,Roxbury,,,MARSHFIELD,ST,MARSHFIELD ST,"(42.3231624479185, -71.0687594952017)"
0800408000,1830,,02119,Roxbury,,34,MARSHFIELD,ST,34 MARSHFIELD ST,"(42.3231310801142, -71.0688334549295)"
0800016000,2628,,02125,Roxbury,,43,E COTTAGE,ST,43 E COTTAGE ST,"(42.3212220770921, -71.0688719629382)"
0800017000,2926,,02125,Roxbury,,47,E COTTAGE,ST,47 E COTTAGE ST,"(42.3211998394272, -71.0687384928939)"
0800043000,3506,,02125,Roxbury,,,E COTTAGE,ST,E COTTAGE ST,"(42.3213740532005, -71.0696547729508)"
0800686000,1963,,02119,Roxbury,,89,GEORGE,ST,89 GEORGE ST,"(42.3257614633104, -71.0726351849443)"
0800687000,3045,,02119,Roxbury,,,GEORGE,ST,GEORGE ST,"(42.3256406328984, -71.0726602259056)"
0800689000,2030,,02119,Roxbury,,95 95A,GEORGE,ST,95 95A GEORGE ST,"(42.3255164604117, -71.0725071409263)"
0800690000,2001,,02119,Roxbury,,48,WOODWARD,AV,48 WOODWARD AV,"(42.3254822471621, -71.0727008043625)"
0800177000,2883,,02119,Roxbury,,,BURRELL,ST,BURRELL ST,"(42.322350751939, -71.072167044802)"
0802654000,4803,,02119,Roxbury,,,DUDLEY,ST,DUDLEY ST,"(42.3270461485665, -71.0769344892764)"
0802426020,7060,,02119,Roxbury,,,WASHINGTON,ST,WASHINGTON ST,"(42.3323099479509, -71.0809203768924)"
0903210000,6990,,02119,Roxbury,,34,KENILWORTH,ST,34 KENILWORTH ST,"(42.3287532187185, -71.0882075002928)"
0900427000,1886,,02118,South End,,97,W CONCORD,ST,97 W CONCORD ST,"(42.3390334495614, -71.0760838694894)"
1501814000,5388,,02125,Dorchester,,38,CLARKSON,ST,38 CLARKSON ST,"(42.3086256753644, -71.0666081268018)"
1501816000,5388,,02125,Dorchester,,30,CLARKSON,ST,30 CLARKSON ST,"(42.3088041810748, -71.0663726935011)"
1501974000,6618,,02125,Dorchester,Residential 2 Family,29 31,MT EVERETT,ST,29 31 MT EVERETT ST,"(42.3103379345161, -71.0705081806051)"
1502386000,6626,,02125,Dorchester,,20 A20B,BAKER,ST,20 A20B BAKER ST,"(42.3127160689276, -71.0709342577957)"
1501451000,4732,,02122,Dorchester,,151,HOMES,AV,151 HOMES AV,"(42.3039451263947, -71.0641446385532)"
1500843000,7647,,02122,Dorchester,,379,GENEVA,AV,379 GENEVA AV,"(42.3014282487751, -71.068574829012)"
1500611000,3310,,02122,Dorchester,,9,JOSEPHINE,ST,9 JOSEPHINE ST,"(42.3002867725879, -71.0651216666021)"
1500612000,3260,,02122,Dorchester,,11,JOSEPHINE,ST,11 JOSEPHINE ST,"(42.3003213059378, -71.0649815933863)"
1300429000,2600,,02125,Roxbury,,7,BROOKFORD,ST,7 BROOKFORD ST,"(42.3182098072206, -71.077110987834)"
1300430000,2275,,02119,Roxbury,,1,RANDLETT,PL,1 RANDLETT PL,"(42.3180542869188, -71.0771570940024)"
1001136000,3804,,02120,Jamaica Plain,,,PARKER,ST,PARKER ST,"(42.3284767840648, -71.0993348467678)"
1001137000,3448,,02120,Jamaica Plain,,,PARKER,ST,PARKER ST,"(42.3283874871509, -71.0994008918833)"
0903767000,0,,02119,Roxbury,,3,JUNIPER,TE,3 JUNIPER TE,"(42.3251831819783, -71.0883229144733)"
0903768000,1334,,02119,Roxbury,,2,JUNIPER,TE,2 JUNIPER TE,"(42.3252470568091, -71.0883133425899)"
1000981000,4350,,02120,Jamaica Plain,,,SACHEM,ST,SACHEM ST,"(42.3309871260374, -71.1077893654745)"
0903770000,1052,,02119,Roxbury,,2613,WASHINGTON,ST,2613 WASHINGTON ST,"(42.325315106266, -71.0882120494341)"
0903261000,2904,,02119,Roxbury,,120 122,ROXBURY,ST,120 122 ROXBURY ST,"(42.3302744298237, -71.0882890191423)"
1300614000,2686,,02125,Roxbury,,11,SARGENT,ST,11 SARGENT ST,"(42.3164803451184, -71.0739980286031)"
1300615000,2644,,02125,Roxbury,,13,SARGENT,ST,13 SARGENT ST,"(42.3164217375926, -71.0739934145263)"
1302687000,3858,,02125,Dorchester,Commercial,102 110,SAVIN HILL,AV,102 110 SAVIN HILL AV,"(42.311826928093, -71.053806278704)"
1301631000,7725,,02125,Dorchester,,122,HANCOCK,ST,122 HANCOCK ST,"(42.3120310166645, -71.063017302123)"
1301632000,5884,,02125,Dorchester,,120,HANCOCK,ST,120 HANCOCK ST,"(42.3121178437501, -71.0631584991663)"
1301072000,1457,,02125,Roxbury,,23,ALEXANDER,ST,23 ALEXANDER ST,"(42.3179612169682, -71.069664549265)"
1301073000,1474,,02125,Roxbury,,25,ALEXANDER,ST,25 ALEXANDER ST,"(42.317902860038, -71.0696889240639)"
1300611000,4231,,02125,Roxbury,,5,SARGENT,ST,5 SARGENT ST,"(42.316842134415, -71.0740749809655)"
1301188000,3330,,02121,Dorchester,,262,QUINCY,ST,262 QUINCY ST,"(42.3121629487728, -71.0719666801749)"
1301189000,3540,,02121,Roxbury,,260,QUINCY,ST,260 QUINCY ST,"(42.312195042268, -71.072113281689)"
1301050000,1380,,02125,Roxbury,,28,MAGNOLIA,ST,28 MAGNOLIA ST,"(42.3179621923149, -71.0699385851386)"
1301051000,1380,,02125,Roxbury,,26,MAGNOLIA,ST,26 MAGNOLIA ST,"(42.3180130721801, -71.0699159128704)"
1300478000,3330,,02125,Roxbury,,43,DANUBE,ST,43 DANUBE ST,"(42.3169534058844, -71.0759519263022)"
1300479000,3552,,02125,Roxbury,,45,DANUBE,ST,45 DANUBE ST,"(42.3167869527909, -71.0759742548452)"
1502275000,2800,,02121,Dorchester,,276,GENEVA,AV,276 GENEVA AV,"(42.3042959952647, -71.072141004376)"
1502277000,2988,,02121,Dorchester,,268,GENEVA,AV,268 GENEVA AV,"(42.3045022693745, -71.0723911753408)"
1400659000,12072,,02121,Roxbury,,40,GENEVA,AV,40 GENEVA AV,"(42.3084113662209, -71.080863873124)"
1403200000,6041,,02124,Mattapan,,1028 1044,BLUE HILL,AV,1028 1044 BLUE HILL AV,"(42.2887822365103, -71.0896137795038)"
1701506000,2741,,02124,Mattapan,,17,WOODROW,AV,17 WOODROW AV,"(42.2882806961371, -71.0786373827561)"
1401604000,4200,,02121,Dorchester,,197 203,WASHINGTON,ST,197 203 WASHINGTON ST,"(42.3026946547875, -71.0783078054938)"
1700153000,3312,,02124,Dorchester,,100 A102,HARVARD,ST,100 A102 HARVARD ST,"(42.2967425196066, -71.0780003613284)"
1401440000,6514,,02121,Dorchester,,317 321,WASHINGTON,ST,317 321 WASHINGTON ST,"(42.2999328567954, -71.0747431649073)"
1403128000,5619,,02124,Mattapan,,982 978,BLUE HILL,AV,982 978 BLUE HILL AV,"(42.2903210047776, -71.0890392114867)"
1400695000,2439,,02121,Roxbury,,194,COLUMBIA,RD,194 COLUMBIA RD,"(42.3068472102023, -71.0773250653904)"
1404058000,3900,,02126,Mattapan,,1228 1230A,BLUE HILL,AV,1228 1230A BLUE HILL AV,"(42.2821601591824, -71.0917315697849)"
1404127000,6000,,02126,Mattapan,,1260 1262,BLUE HILL,AV,1260 1262 BLUE HILL AV,"(42.2811197337942, -71.0920772172323)"
1701507000,2741,,02124,Mattapan,,19 21,WOODROW,AV,19 21 WOODROW AV,"(42.28829073026, -71.0787558229467)"
1404432000,4296,,02124,Mattapan,,1039,BLUE HILL,AV,1039 BLUE HILL AV,"(42.2889934575317, -71.0902512231728)"
1404405000,3437,,02124,Mattapan,,1015,BLUE HILL,AV,1015 BLUE HILL AV,"(42.2896878308154, -71.0900587196283)"
1404406000,3600,,02124,Mattapan,,1019,BLUE HILL,AV,1019 BLUE HILL AV,"(42.2895963893357, -71.0900936784376)"
1404458000,3493,,02124,Mattapan,,6,FABYAN,ST,6 FABYAN ST,"(42.2890814136295, -71.0904124573253)"
1404578000,3579,,02124,Mattapan,,1127 1135,BLUE HILL,AV,1127 1135 BLUE HILL AV,"(42.2859657721569, -71.0911902570989)"
1404580000,2840,,02124,Mattapan,,3,BAIRD,ST,3 BAIRD ST,"(42.2857797279281, -71.0913990768616)"
1400797000,2750,,02121,Roxbury,,29,CASTLEGATE,RD,29 CASTLEGATE RD,"(42.3066897642082, -71.0827455345908)"
1400798000,2547,,02121,Roxbury,,33,CASTLEGATE,RD,33 CASTLEGATE RD,"(42.3066147521913, -71.0825702277207)"
1701971000,4859,,02124,Mattapan,,174,NORFOLK,ST,174 NORFOLK ST,"(42.2864744555495, -71.0790333829721)"
1702542000,6627,,02124,Mattapan,,80,SELDEN,ST,80 SELDEN ST,"(42.280809115102, -71.0796261339587)"
1403585000,4686,,02124,Mattapan,,94,WILLOWWOOD,ST,94 WILLOWWOOD ST,"(42.2834038034681, -71.0855998907793)"
1702861000,4087,,02124,Dorchester,,94,MILTON,AV,94 MILTON AV,"(42.2825105170246, -71.0759496296826)"
1404224000,10000,,02124,Mattapan,,21,ANGELL,ST,21 ANGELL ST,"(42.2960683993618, -71.0881350966881)"
1404229000,6625,,02124,Mattapan,,37,ANGELL,ST,37 ANGELL ST,"(42.2966719139096, -71.0886189874117)"
1404134000,4210,,02126,Mattapan,,17,HOSMER,ST,17 HOSMER ST,"(42.2810102310801, -71.0913603190715)"
1402658000,4953,,02121,Roxbury,,153 B149,HARVARD,ST,153 B149 HARVARD ST,"(42.296430102147, -71.0811162011944)"
1403405001,3778,,02124,Mattapan,,17,THEODORE,ST,17 THEODORE ST,"(42.2844935895735, -71.0876901279855)"
1401797000,3205,,02121,Roxbury,,103,ELLINGTON,ST,103 ELLINGTON ST,"(42.3013904897206, -71.0810673638017)"
1402518000,3550,,02121,Roxbury,,20,MCLELLAN,ST,20 MCLELLAN ST,"(42.3007122068775, -71.0848207521977)"
1402954000,2265,,02124,Mattapan,,61 63,WOODROW,AV,61 63 WOODROW AV,"(42.2880620424462, -71.0807422397645)"
1402956000,3096,,02124,Mattapan,,65,WOODROW,AV,65 WOODROW AV,"(42.2880851244074, -71.0808855249584)"
1402858000,5150,,02124,Mattapan,,105,CALLENDER,ST,105 CALLENDER ST,"(42.2885707119309, -71.0831323196871)"
1401188000,9920,,02121,Dorchester,,282 284,WASHINGTON,ST,282 284 WASHINGTON ST,"(42.3009937382089, -71.0755608810492)"
1401780000,2855,,02121,Roxbury,,140 144,ERIE,ST,140 144 ERIE ST,"(42.3011021750872, -71.0830322126941)"
1401454000,2536,,02121,Dorchester,,5,HARVARD,AV,5 HARVARD AV,"(42.2994042318828, -71.0750332824225)"
1401455000,2681,,02121,Dorchester,,5,ARVALE,RD,5 ARVALE RD,"(42.2994167910644, -71.0748250298541)"
1401456000,2645,,02121,Dorchester,,7,ARVALE,RD,7 ARVALE RD,"(42.2994561709757, -71.0746999923876)"
1401313000,3792,,02121,Dorchester,,21,NOTTINGHAM,ST,21 NOTTINGHAM ST,"(42.3016480379414, -71.0735656737624)"
1401314000,4141,,02121,Dorchester,,23,NOTTINGHAM,ST,23 NOTTINGHAM ST,"(42.3017548886471, -71.0736388873472)"
1401325000,6963,,02121,Dorchester,,114,BOWDOIN,ST,114 BOWDOIN ST,"(42.3028434998509, -71.0719580552892)"
1400033000,5395,,02121,Dorchester,,,JEANNE,DR,JEANNE DR,"(42.3052694968646, -71.0746348500542)"
1702407000,4897,,02124,Dorchester,,103,GREENBRIER,ST,103 GREENBRIER ST,"(42.2965325332682, -71.070726978014)"
1702409000,3954,,02124,Dorchester,,109,GREENBRIER,ST,109 GREENBRIER ST,"(42.2962632012512, -71.0706511750185)"
1402400000,2340,,02121,Dorchester,,24,ELMONT,ST,24 ELMONT ST,"(42.2984674007781, -71.0776159531703)"
1702606000,1067,,02124,Mattapan,,,MORTON,ST,MORTON ST,"(42.2788575304821, -71.0795942787605)"
1401707000,3800,,02121,Dorchester,,144,GREENWOOD,ST,144 GREENWOOD ST,"(42.2967972948412, -71.0793183594617)"
1603410000,4113,,02124,Dorchester,,19 21,MINOT,PK,19 21 MINOT PK,"(42.283939231783, -71.0571531679773)"
1703979004,96,,02126,Mattapan,,,CARYLL,ST,CARYLL ST,"(42.2752471424604, -71.0769818085437)"
1400284000,9702,,02121,Roxbury,,,BLUE HILL,AV,BLUE HILL AV,"(42.3129273655833, -71.0795640924412)"
1400285000,1671,,02121,Roxbury,,328 A,BLUE HILL,AV,328 A BLUE HILL AV,"(42.3130731417261, -71.0795047818886)"
1703208000,450,,02124,Dorchester,,,CODMAN HILL,AV,CODMAN HILL AV,"(42.2795405659506, -71.0740740715288)"
1704637000,1380,,02124,Dorchester,,,BURT,ST,BURT ST,"(42.2850114594111, -71.0675594488064)"
1402955000,1520,,02124,Mattapan,,,WOODROW,AV,WOODROW AV,"(42.2881939091645, -71.0807936943514)"
1402773000,8827,,02121,Roxbury,,726,BLUE HILL,AV,726 BLUE HILL AV,"(42.2997682868959, -71.0858793465329)"
1400503000,2295,,02121,Roxbury,,384 384A,BLUE HILL,AV,384 384A BLUE HILL AV,"(42.3114340357351, -71.0807506986233)"
1400504000,2295,,02121,Roxbury,,382 382A,BLUE HILL,AV,382 382A BLUE HILL AV,"(42.3114873142039, -71.0807086667103)"
1400505000,2295,,02121,Roxbury,,380,BLUE HILL,AV,380 BLUE HILL AV,"(42.311538488373, -71.0806672938125)"
1400506000,2295,,02121,Roxbury,,378,BLUE HILL,AV,378 BLUE HILL AV,"(42.3115895217292, -71.0806308361838)"
1400507000,2295,,02121,Roxbury,,376 376B,BLUE HILL,AV,376 376B BLUE HILL AV,"(42.3116412823847, -71.080584006449)"
1502697000,4600,,02125,Dorchester,,17,TRULL,ST,17 TRULL ST,"(42.3123639611984, -71.066183168896)"
1502186000,327,,02125,Dorchester,,,RICHFIELD,ST,RICHFIELD ST,"(42.3058746224967, -71.0698014479837)"
1501204001,1023,,02122,Dorchester,,,HOMES,AV,HOMES AV,"(42.3029002918358, -71.0666686342902)"
1501867000,275,,02125,Dorchester,,,QUINCY,ST,QUINCY ST,"(42.3093072359547, -71.0667475854004)"
0200965000,19853,,02129,Charlestown,,,WALKER,ST,WALKER ST,"(42.3786442772757, -71.0679218809478)"
0902481000,134,,02119,Roxbury,,,WASHINGTON,ST,WASHINGTON ST,"(42.3309459494796, -71.0833126383684)"
0903203000,612,,02119,Roxbury,,,KENILWORTH,ST,KENILWORTH ST,"(42.3288203100172, -71.0885319651088)"
0903264000,4060,,02119,Roxbury,,,PUTNAM,PL,PUTNAM PL,"(42.3298239723701, -71.0880301133494)"
0903265000,3444,,02119,Roxbury,,,PUTNAM,PL,PUTNAM PL,"(42.3300094815581, -71.0880463335094)"
0903460000,0,,02119,Roxbury,,,LINWOOD,ST,LINWOOD ST,"(42.328645940619, -71.0941886150984)"
0903769000,1136,,02119,Roxbury,,1,JUNIPER,TE,1 JUNIPER TE,"(42.3253332453895, -71.088325684542)"
1000483000,1265,,02120,Jamaica Plain,,3,MORTON,PL,3 MORTON PL,"(42.3314850280887, -71.0968886122203)"
1000468000,2548,,02120,Jamaica Plain,,6 8,GORE,ST,6 8 GORE ST,"(42.3307469603103, -71.096991855382)"
1001298000,3070,,02120,Jamaica Plain,,21 23,WENSLEY,ST,21 23 WENSLEY ST,"(42.327064465508, -71.1010252293366)"
1001299000,1647,,02120,Jamaica Plain,,53,WENSLEY,ST,53 WENSLEY ST,"(42.3274021571321, -71.1022648285853)"
1001321000,4066,,02120,Jamaica Plain,,,FISHER,AV,FISHER AV,"(42.3275571673236, -71.1022795345113)"
1001275000,3078,,02120,Jamaica Plain,,8,BICKFORD,AV,8 BICKFORD AV,"(42.3267669270507, -71.1026291471141)"
0703308000,54,,02125,Dorchester,,,WASHBURN,ST,WASHBURN ST,"(42.3255305361049, -71.057122244635)"
0702740001,873,,02125,South Boston,,,MT VERNON,ST,MT VERNON ST,"(42.3217697502185, -71.0530958628514)"
1500787000,3686,,02124,Dorchester,,5,ORCHARDALE,ST,5 ORCHARDALE ST,"(42.3007964966621, -71.0697814570056)"
1500788000,3839,,02124,Dorchester,,7,ORCHARDALE,ST,7 ORCHARDALE ST,"(42.3009058222861, -71.0698390086793)"
0600795001,165,,02127,South Boston,,,E,ST,E ST,"(42.3347068451737, -71.0531311422506)"
1502300000,5831,,02121,Dorchester,,,ROCK,TE,ROCK TE,"(42.3060070598511, -71.0714769165518)"
1502191001,5217,,02121,Dorchester,,1,MACNEIL,WY,1 MACNEIL WY,"(42.3049062961627, -71.070439605055)"
1502728000,6073,,02125,Dorchester,,10,WARE,ST,10 WARE ST,"(42.3115482362661, -71.0657885514813)"
1300424000,2773,,02119,Roxbury,,192,BLUE HILL,AV,192 BLUE HILL AV,"(42.3180319989985, -71.0776010792737)"
1300425000,3274,,02119,Roxbury,,190 A190,BLUE HILL,AV,190 A190 BLUE HILL AV,"(42.3181297838977, -71.0775940315427)"
1000367000,1804,,02120,Jamaica Plain,,132,TERRACE,ST,132 TERRACE ST,"(42.327774957, -71.0982090365832)"
0903782000,214,,02119,Roxbury,,,WASHINGTON,ST,WASHINGTON ST,"(42.3239576886178, -71.0895824942164)"
1000495000,3207,,02120,Jamaica Plain,,725 727,PARKER,ST,725 727 PARKER ST,"(42.3312386572935, -71.0975788269929)"
1000496000,2473,,02120,Jamaica Plain,,729 R,PARKER,ST,729 R PARKER ST,"(42.3311980785888, -71.0978050375738)"
1000477000,1487,,02120,Jamaica Plain,,708,PARKER,ST,708 PARKER ST,"(42.331335965636, -71.0971638801436)"
1000387000,2286,,02120,Jamaica Plain,,40 42,TERRACE,ST,40 42 TERRACE ST,"(42.3305205739566, -71.0965900408719)"
0105167000,1053,,02128,East Boston,,,ARAMON,ST,ARAMON ST,"(42.3662044471072, -71.0308280867975)"
0101959000,975,,02128,East Boston,,,GLADSTONE,ST,GLADSTONE ST,"(42.3894923815197, -71.0038835345312)"
0303240000,230,,02113,Central,,,LEWIS,ST,LEWIS ST,"(42.3638793571309, -71.0524129596479)"
0107066000,7269095,,02128,,,,LONG ISLAND,,LONG ISLAND,"(42.3184644699001, -70.9672383206174)"
0303837000,21,,02109,Central,,,BROAD,ST,BROAD ST,"(42.3586306695154, -71.0548275045334)"
0503128000,6738,,02116,Back Bay/Beacon Hill,,801 807,BOYLSTON,ST,801 807 BOYLSTON ST,"(42.3490863646372, -71.0821174737494)"
2102191000,298,,02135,Allston/Brighton,,,COMMONWEALTH,AV,COMMONWEALTH AV,"(42.3410964923829, -71.1475975305948)"
0101688001,500,,02128,East Boston,,,ASHLEY,ST,ASHLEY ST,"(42.3884275858959, -71.0053155461492)"
2205011001,113,,02135,Allston/Brighton,,,KIRKWOOD,RD,KIRKWOOD RD,"(42.3416130157306, -71.1583547977194)"
2201399000,308,,02134,Allston/Brighton,,,MYRICK,ST,MYRICK ST,"(42.3591539041657, -71.1310279188384)"
0100114000,1120,,02128,East Boston,,6,LAWSON,PL,6 LAWSON PL,"(42.3800323262356, -71.0283032901377)"
1802374000,7899,,02126,Mattapan,,,LIVERMORE,ST,LIVERMORE ST,"(42.2752613949462, -71.105801445991)"
1802813000,4677,,02126,Mattapan,,,MONTEREY,AV,MONTEREY AV,"(42.2757104123069, -71.1007649686653)"
1100040000,993,,02119,Roxbury,,,ANITA,TE,ANITA TE,"(42.3300297480395, -71.0949935904782)"
1100041000,1009,,02119,Roxbury,,,ANITA,TE,ANITA TE,"(42.330097004335, -71.0949335957838)"
1802719002,2750,,02126,Mattapan,,,SAVANNAH,AV,SAVANNAH AV,"(42.2716401062133, -71.1023627483302)"
1802653000,4000,,02126,Mattapan,,,CANAAN,ST,CANAAN ST,"(42.2730720487881, -71.1032197490502)"
2002914000,4665,,02132,West Roxbury,,,HERON,ST,HERON ST,"(42.2704950279794, -71.1499810263181)"
1202673000,1711,,02121,Roxbury,,395,BLUE HILL,AV,395 BLUE HILL AV,"(42.3115321250059, -71.0813003765604)"
1200922000,5779,,02119,Roxbury,,235 239,BLUE HILL,AV,235 239 BLUE HILL AV,"(42.3164330499869, -71.0784173971076)"
1806130000,48,,02131,Hyde Park,,,POPLAR,ST,POPLAR ST,"(42.2693504119868, -71.1320896319992)"
1803302000,3928,,02126,Mattapan,,23,ELENE,ST,23 ELENE ST,"(42.279545469482, -71.0998853535717)"
1803690000,4800,,02136,Hyde Park,,,RADCLIFFE,RD,RADCLIFFE RD,"(42.2686866544051, -71.1041042984986)"
1804927000,660,,02131,Roslindale,,,EARHARDT,RD,EARHARDT RD,"(42.2782942537165, -71.1269629589438)"
1804928000,1260,,02131,Roslindale,,,EARHARDT,RD,EARHARDT RD,"(42.2783100518632, -71.1268341086616)"
1804241000,5062,,02136,Hyde Park,,,ORCHARD,ST,ORCHARD ST,"(42.2674989359972, -71.1080304632783)"
1804242000,5062,,02136,Hyde Park,,,ORCHARD,ST,ORCHARD ST,"(42.2674003602101, -71.1081292762369)"
1803094000,845,,02126,Mattapan,,,ITASCA,ST,ITASCA ST,"(42.2778454100044, -71.0974065732318)"
1803009001,29,,02126,Mattapan,,,TENNIS,RD,TENNIS RD,"(42.2763851196446, -71.0966876087326)"
1802597000,2531,,02126,Mattapan,,,KENNEBEC,ST,KENNEBEC ST,"(42.272525046441, -71.1065387880508)"
1802598000,2504,,02126,Mattapan,,,KENNEBEC,ST,KENNEBEC ST,"(42.2726128374428, -71.1064519721028)"
1802599000,5227,,02126,Mattapan,,,KENNEBEC,ST,KENNEBEC ST,"(42.2727506574584, -71.1063161651579)"
1802471000,3929,,02126,Mattapan,,,CROYDON,ST,CROYDON ST,"(42.272981119589, -71.1066267427834)"
1802472000,4000,,02126,Mattapan,,,KENNEBEC,ST,KENNEBEC ST,"(42.2728952318751, -71.1067133728415)"
1802486000,5643,,02126,Mattapan,,,CROYDON,ST,CROYDON ST,"(42.273311608394, -71.1066429198955)"
1802369000,3285,,02126,Mattapan,,,HEBRON,ST,HEBRON ST,"(42.2747539424354, -71.1058775763651)"
1801151000,140,,02126,Mattapan,,,TESLA,ST,TESLA ST,"(42.2664108763307, -71.0964736016163)"
1802362000,3200,,02126,Mattapan,,,CANAAN,ST,CANAAN ST,"(42.2745660533296, -71.1055642016108)"
1802363000,3200,,02126,Mattapan,,,HEBRON,ST,HEBRON ST,"(42.2746583671603, -71.105471043987)"
1802365000,4000,,02126,Mattapan,,,HEBRON,ST,HEBRON ST,"(42.2747760503322, -71.1053108651933)"
1802366000,6000,,02126,Mattapan,,,HEBRON,ST,HEBRON ST,"(42.2748905714112, -71.105194065847)"
1802303000,4000,,02126,Mattapan,,,ALABAMA,ST,ALABAMA ST,"(42.2756541536748, -71.1021727045136)"
1801717000,1500,,02126,Mattapan,,,VIOLANTE,ST,VIOLANTE ST,"(42.2674039814584, -71.0969517871344)"
1808517040,277,,02136,Hyde Park,,,BEECHMONT,ST,BEECHMONT ST,"(42.2679887912071, -71.1260285708594)"
1807545000,900,,02136,Hyde Park,,,CROMWELL,RD,CROMWELL RD,"(42.2626627500765, -71.1164348047618)"
1808585001,45,,02136,Hyde Park,,,BEECH,ST,BEECH ST,"(42.2699829992557, -71.1274200976441)"
1806284080,767,,02131,Roslindale,,,BRADSTREET,AV,BRADSTREET AV,"(42.2822150276064, -71.117751058119)"
1808517033,4595,,02136,Hyde Park,,,SHERRIN,ST,SHERRIN ST,"(42.2676964286854, -71.125284905105)"
1808517034,4774,,02136,Hyde Park,,,SHERRIN,ST,SHERRIN ST,"(42.2675577597306, -71.1253467570421)"
1807400000,1300,,02131,Hyde Park,,,PLEASANTVIEW,ST,PLEASANTVIEW ST,"(42.274681961583, -71.1104112329908)"
1802292000,4279,,02126,Mattapan,,,MONTEREY,AV,MONTEREY AV,"(42.2757732366045, -71.1020624045748)"
1812630000,5500,,02136,Hyde Park,,,MANILA,AV,MANILA AV,"(42.2431407462728, -71.1362159346672)"
1812631000,4500,,02136,Hyde Park,,,MANILA,AV,MANILA AV,"(42.2432662174453, -71.1357933252167)"
1812632000,4800,,02136,Hyde Park,,,MANILA,AV,MANILA AV,"(42.2432560256343, -71.1355859766706)"
1812633000,5740,,02136,Hyde Park,,,MANILA,AV,MANILA AV,"(42.2432608398547, -71.1354284286917)"
1812634000,4750,,02136,Hyde Park,,,MANILA,AV,MANILA AV,"(42.243368710627, -71.1353190294493)"
1812652000,4343,,02136,Hyde Park,,,MANILA,AV,MANILA AV,"(42.2436076569655, -71.1358959110371)"
1812653000,4000,,02136,Hyde Park,,,MANILA,AV,MANILA AV,"(42.2435589766863, -71.1360317713866)"
1812654000,4000,,02136,Hyde Park,,,MANILA,AV,MANILA AV,"(42.243511559695, -71.136164983855)"
1812655000,4000,,02136,Hyde Park,,,MANILA,AV,MANILA AV,"(42.2434643997323, -71.1362985946338)"
1812656000,4000,,02136,Hyde Park,,,MANILA,AV,MANILA AV,"(42.2434169128279, -71.1364316023688)"
1812657000,4000,,02136,Hyde Park,,,MANILA,AV,MANILA AV,"(42.24336893851, -71.1365636025599)"
1813016000,1045,,02136,Hyde Park,,,SPRAGUE,ST,SPRAGUE ST,"(42.2366594482262, -71.1359159700564)"
1800329000,82,,02126,Mattapan,,,VIKING,TE,VIKING TE,"(42.2713470130611, -71.0886774758677)"
1800077001,1150,,02126,Mattapan,,,GLENMORE,ST,GLENMORE ST,"(42.2720787307878, -71.0781049908622)"
1800079000,2963,,02126,Mattapan,,,GLENMORE,ST,GLENMORE ST,"(42.2721229396701, -71.0779526645011)"
1812334000,9200,,02136,West Roxbury,,,DEDHAM LINE,,DEDHAM LINE,"(42.2546126683238, -71.1463394587213)"
1808648000,5000,,02136,Hyde Park,,,DEFOREST,ST,DEFOREST ST,"(42.2679687983208, -71.1303835018525)"
1808911000,600,,02136,Hyde Park,,,LINCOLN,ST,LINCOLN ST,"(42.2598592969999, -71.1211697570556)"
1401560000,5580,,02121,Dorchester,,,WASHINGTON,ST,WASHINGTON ST,"(42.3008151905746, -71.0771082043333)"
1400787000,3442,,02121,Roxbury,,,CASTLEGATE,RD,CASTLEGATE RD,"(42.3073925600335, -71.0830175318412)"
1401312001,214,,02121,Dorchester,,,NOTTINGHAM,ST,NOTTINGHAM ST,"(42.3016172789296, -71.0733765240005)"
1700429001,187,,02124,Dorchester,,,W TREMLETT,ST,W TREMLETT ST,"(42.2941526074404, -71.0749603539501)"
1701672000,1035,,02124,Dorchester,,,DUNBAR,AV,DUNBAR AV,"(42.2868951406564, -71.0716572061054)"
1403186001,175,,02124,Mattapan,,,ASHTON,ST,ASHTON ST,"(42.2884830057839, -71.0893521739436)"
1404648000,130,,02126,Mattapan,,,MORTON,ST,MORTON ST,"(42.2866893282526, -71.0938221753581)"
1404089000,562,,02126,Mattapan,,,HOSMER,ST,HOSMER ST,"(42.2804766936581, -71.0891572636142)"
1404262001,1842,,02124,Roxbury,,,BLUE HILL,AV,BLUE HILL AV,"(42.2950602425567, -71.0881456961295)"
1403814000,10,,02124,Mattapan,,,BALLOU,AV,BALLOU AV,"(42.2863525378477, -71.0809999856326)"
1602232000,108,,02122,Dorchester,,,NEPONSET,AV,NEPONSET AV,"(42.2924088733254, -71.050927895532)"
1603457002,7550,,02124,Dorchester,,,ADAMS,ST,ADAMS ST,"(42.2842004839065, -71.0566233099194)"
1603457004,4590,,02124,Dorchester,,,ADAMS,ST,ADAMS ST,"(42.2841369252047, -71.0567116384653)"
1602689000,686,,02122,Dorchester,,,WATER,ST,WATER ST,"(42.2885114094701, -71.0408085650963)"
1701287000,2663,,02124,Dorchester,,6,EPPING,ST,6 EPPING ST,"(42.2896648106332, -71.0718594178113)"
1701102000,140,,02124,Dorchester,,,ALPHA,RD,ALPHA RD,"(42.2960763824253, -71.0684552813597)"
1605281000,378,,02124,Dorchester,,,SHENANDOAH,ST,SHENANDOAH ST,"(42.2819878178791, -71.0613946732439)"
1600004000,94450,,02122,Dorchester,,,FREEPORT,ST,FREEPORT ST,"(42.3036641756922, -71.0498668619634)"
1603683000,153,,02122,Dorchester,,,FRANCONIA,ST,FRANCONIA ST,"(42.2852125334421, -71.0535585374217)"
1700115000,116,,02124,Dorchester,,,SCHOOL,ST,SCHOOL ST,"(42.2966686004379, -71.0746462271847)"
1605186000,85,,02124,Dorchester,,,KENMARE,RD,KENMARE RD,"(42.2834962061051, -71.0568862529386)"
1605246001,344,,02124,Dorchester,,,FREDERIKA,ST,FREDERIKA ST,"(42.2829115452407, -71.0592694757948)"
1602420000,2164,,02122,Dorchester,,,WM T MORRISSEY,BL,WM T MORRISSEY BL,"(42.2895630763714, -71.0454192815255)"
1604189000,250,,02124,Dorchester,,,GALLIVAN,BL,GALLIVAN BL,"(42.2840345457437, -71.0460451807314)"
1700788000,1171,,02124,Dorchester,,162 166,CENTRE,ST,162 166 CENTRE ST,"(42.2922251677677, -71.065297851064)"
1202570000,24788,,02121,Roxbury,Commercial,621,WARREN,ST,621 WARREN ST,"(42.3108001559606, -71.0837371510518)"
1202672000,1651,,02121,Roxbury,,391 393,BLUE HILL,AV,391 393 BLUE HILL AV,"(42.3115840442212, -71.0812605534363)"
1100158000,5405,,02119,Roxbury,,37 39,DORR,ST,37 39 DORR ST,"(42.3268498465277, -71.0910856970409)"
1101073000,1408,,02119,Roxbury,,,COLUMBUS,AV,COLUMBUS AV,"(42.3166684254736, -71.0984707306816)"
1101343000,180,,02130,Roxbury,,,EGLESTON,ST,EGLESTON ST,"(42.3144713601614, -71.1003938320819)"
2001160001,216,,02131,Roslindale,,,ROSLINDALE,AV,ROSLINDALE AV,"(42.2832531644776, -71.1354794547143)"
2000693000,210,,02131,Roslindale,,,W ROXBURY,PW,W ROXBURY PW,"(42.2828281324716, -71.145943997395)"
2010812009,6160,,02132,West Roxbury,,,PROPOSED,RD,PROPOSED RD,"(42.26142478534, -71.1618487354819)"
2007445000,4296,,02132,West Roxbury,,,FURBUSH,RD,FURBUSH RD,"(42.2944857408884, -71.1663251292805)"
2007450000,4478,,02132,West Roxbury,,,FURBUSH,RD,FURBUSH RD,"(42.2940915663356, -71.1668464706927)"
2009419000,3332,,02132,West Roxbury,,,MIAMI,AV,MIAMI AV,"(42.2746008488299, -71.1645904547599)"
2010840100,1675,,02132,West Roxbury,,,CENTRE,ST,CENTRE ST,"(42.259056263177, -71.1626731830047)"
2002323001,500,,02132,West Roxbury,,,MAXFIELD,ST,MAXFIELD ST,"(42.2808382807407, -71.1545858946682)"
2002101000,20,,02132,West Roxbury,,,WOODARD,RD,WOODARD RD,"(42.2790863926408, -71.1470030026818)"
2002140000,110,,02132,West Roxbury,,,WHITE OAK,RD,WHITE OAK RD,"(42.2796781257626, -71.1487426085249)"
2000367000,113,,02131,Roslindale,,,HAYES,RD,HAYES RD,"(42.283289991934, -71.1328533079572)"
2004139000,152,,02132,West Roxbury,,,RUSSETT,RD,RUSSETT RD,"(42.2936391852308, -71.1523269667502)"
2003353000,9972,,02132,West Roxbury,,,HIGH VIEW,AV,HIGH VIEW AV,"(42.2684196871732, -71.1538093893256)"
2006272002,328,,02132,West Roxbury,,,WILNA,CT,WILNA CT,"(42.288526408797, -71.1531341982383)"
2002953000,5927,,02132,West Roxbury,,,HERON,ST,HERON ST,"(42.2701281313996, -71.1502726890724)"
1103320000,5280,,02130,Jamaica Plain,,163 R,SOUTH,ST,163 R SOUTH ST,"(42.3041908241929, -71.1153557368929)"
1904048000,3731,,02131,Roslindale,,,HEATHCOTE,ST,HEATHCOTE ST,"(42.2821524494489, -71.1246528553836)"
1904049000,3900,,02131,Roslindale,,,HEATHCOTE,ST,HEATHCOTE ST,"(42.282244181302, -71.1244990696151)"
1811616000,1260,,02136,Hyde Park,,,LINWOOD,ST,LINWOOD ST,"(42.2573705309518, -71.1285838706438)"
1903360000,195,,02131,Roslindale,,,FAWNDALE,RD,FAWNDALE RD,"(42.2896149933174, -71.1208731603418)"
1903320000,912,,02131,Roslindale,,,GRANFIELD,AV,GRANFIELD AV,"(42.2894543062453, -71.1209334103754)"
1904057000,4500,,02131,Roslindale,,,WRIGHT,ST,WRIGHT ST,"(42.2825745165672, -71.1249790627402)"
1904058000,5160,,02131,Roslindale,,,WRIGHT,ST,WRIGHT ST,"(42.2826404107404, -71.1248196538195)"
1904059000,5577,,02131,Roslindale,,,WRIGHT,ST,WRIGHT ST,"(42.2827983086948, -71.1247790455612)"
1904133000,3851,,02131,Roslindale,,,CORNAUBA,ST,CORNAUBA ST,"(42.2813139541978, -71.1244085183408)"
1800117005,8590,,02126,Mattapan,,,GLADESIDE,AV,GLADESIDE AV,"(42.2720406200483, -71.0879102988883)"
1800117015,13,,02126,Mattapan,,,LINVALE,TE,LINVALE TE,"(42.2714356108588, -71.0886110576584)"
1800385016,317,,02126,Mattapan,,,DANIA,ST,DANIA ST,"(42.2726838278462, -71.0891495355025)"
1900275000,6571,,02130,Jamaica Plain,,,PAUL GORE,ST,PAUL GORE ST,"(42.3191810771298, -71.108482358471)"
2007835000,1457,,02132,West Roxbury,,,LAGRANGE,ST,LAGRANGE ST,"(42.2991869252419, -71.1714363360765)"
2003156000,900,,02132,West Roxbury,,,WEDGEMERE,RD,WEDGEMERE RD,"(42.2713591998778, -71.1598359332273)"
1404446001,4226,,02124,Mattapan,,420 A,HARVARD,ST,420 A HARVARD ST,"(42.2899037205808, -71.0915537350649)"
1502510000,2266,,02125,Dorchester,Residential 2 Family,20 22,DEER,ST,20 22 DEER ST,"(42.312198995024, -71.0580788783414)"
1000428000,2738,,02120,Jamaica Plain,,796,PARKER,ST,796 PARKER ST,"(42.3289602427955, -71.0987411902017)"
1000429000,5526,,02120,Jamaica Plain,,794,PARKER,ST,794 PARKER ST,"(42.3290773033689, -71.0987135710903)"
1000430000,3817,,02120,Jamaica Plain,,792,PARKER,ST,792 PARKER ST,"(42.3291979458851, -71.0986743260556)"
1000431000,2926,,02120,Jamaica Plain,,790,PARKER,ST,790 PARKER ST,"(42.3292841651818, -71.0986482315699)"
1000432000,2901,,02120,Jamaica Plain,,788,PARKER,ST,788 PARKER ST,"(42.3293551146624, -71.0986197715577)"
1000433000,2577,,02120,Jamaica Plain,,786,PARKER,ST,786 PARKER ST,"(42.3294213099084, -71.0986142581335)"
1000434000,2394,,02120,Jamaica Plain,,784,PARKER,ST,784 PARKER ST,"(42.3294717574477, -71.0985772496979)"
1000435000,2204,,02120,Jamaica Plain,,782,PARKER,ST,782 PARKER ST,"(42.329524017736, -71.0985567815088)"
1000436000,2200,,02120,Jamaica Plain,,780,PARKER,ST,780 PARKER ST,"(42.329575016812, -71.0985348821454)"
1000437000,2174,,02120,Jamaica Plain,,778,PARKER,ST,778 PARKER ST,"(42.3296292707694, -71.0985215610115)"
1000396000,28300,,02120,Jamaica Plain,,77,TERRACE,ST,77 TERRACE ST,"(42.3293486446441, -71.0981292964515)"
0903215010,6170,,02119,Roxbury,,,DUDLEY,ST,DUDLEY ST,"(42.3289254145181, -71.0864092043504)"
1100170001,4644,,02119,Roxbury,,160,HIGHLAND,ST,160 HIGHLAND ST,"(42.3247474080822, -71.092938333576)"
1100170002,4489,,02119,Roxbury,,156 158,HIGHLAND,ST,156 158 HIGHLAND ST,"(42.3248298323616, -71.0931131792746)"
1202882000,10380,,02121,Roxbury,,1 8,QUINCY,TE,1 8 QUINCY TE,"(42.3145485004632, -71.0794060630022)"
1202883000,3534,,02121,Roxbury,,,BLUE HILL,AV,BLUE HILL AV,"(42.3145685384839, -71.0791043616177)"
1202884000,3619,,02121,Roxbury,,287 293,BLUE HILL,AV,287 293 BLUE HILL AV,"(42.3144361043257, -71.0792052281775)"
1202885000,1661,,02121,Roxbury,,295 297,BLUE HILL,AV,295 297 BLUE HILL AV,"(42.314346356832, -71.0792613073529)"
1202885001,2690,,02121,Roxbury,,299,BLUE HILL,AV,299 BLUE HILL AV,"(42.3142922273901, -71.0793320092635)"
1202888000,3432,,02121,Roxbury,,309 309B,BLUE HILL,AV,309 309B BLUE HILL AV,"(42.314008967655, -71.079515935815)"
1202890000,1880,,02121,Roxbury,,48,HOLBORN,ST,48 HOLBORN ST,"(42.3139668743607, -71.0796692009289)"
1202891000,3780,,02121,Roxbury,,46,HOLBORN,ST,46 HOLBORN ST,"(42.3141100628853, -71.079725742167)"
1403565000,5415,,02124,Mattapan,,23,DUMAS,ST,23 DUMAS ST,"(42.28484384815, -71.0860848286375)"
1403727000,6505,,02124,Mattapan,,37,JACOB,ST,37 JACOB ST,"(42.2855500694997, -71.0838856351237)"
1202731000,3886,,02121,Roxbury,,353 359,BLUE HILL,AV,353 359 BLUE HILL AV,"(42.3121099815038, -71.0807962834562)"
1201382002,4836,,02119,Roxbury,Buildable,,AKRON,ST,AKRON ST,"(42.3258608567401, -71.0864146154482)"
1100194000,29087,,02119,Roxbury,,95 R,THORNTON,ST,95 R THORNTON ST,"(42.3236438056412, -71.0912826591816)"
1702612000,5006,,02124,Mattapan,Residential 2 Family,172,FAIRMOUNT,ST,172 FAIRMOUNT ST,"(42.279212500628, -71.0788926693878)"
1202664000,2880,,02121,Roxbury,,23,INTERVALE,ST,23 INTERVALE ST,"(42.3119426912981, -71.0813216752411)"
1202665000,2880,,02121,Roxbury,,25,INTERVALE,ST,25 INTERVALE ST,"(42.3118964740742, -71.0812308570297)"
1403564000,5132,,02124,Mattapan,,19,DUMAS,ST,19 DUMAS ST,"(42.2847324652147, -71.0859528177832)"
1401165000,4808,,02121,Dorchester,,81,BOWDOIN,AV,81 BOWDOIN AV,"(42.3004322464439, -71.0740103685861)"
1806466000,11875,,02131,Roslindale,,,BROOK,ST,BROOK ST,"(42.2848688988551, -71.1137785408598)"
1301742000,24533,,02125,Dorchester,Commercial,543,COLUMBIA,RD,543 COLUMBIA RD,"(42.3158830818622, -71.0656014840289)"
1403743000,4113,,02124,Mattapan,,,MASCOT,ST,MASCOT ST,"(42.2845609477411, -71.0844038104242)"
1200939000,3248,,02119,Roxbury,,54 56,MAYWOOD,ST,54 56 MAYWOOD ST,"(42.3173059512599, -71.0799156458355)"
1200940000,3080,,02119,Roxbury,,50 52,MAYWOOD,ST,50 52 MAYWOOD ST,"(42.3173649006498, -71.079987706437)"
1200942000,3101,,02119,Roxbury,,46 48,MAYWOOD,ST,46 48 MAYWOOD ST,"(42.3174204319229, -71.0800593827489)"
1200979000,5272,,02119,Roxbury,,23,MAYWOOD,ST,23 MAYWOOD ST,"(42.3173040159775, -71.080709456421)"
1402832000,9189,,02124,Mattapan,,23,TUCKER,ST,23 TUCKER ST,"(42.2889101223969, -71.0791484098802)"
1402833000,9436,,02124,Mattapan,,29,TUCKER,ST,29 TUCKER ST,"(42.2891162039809, -71.079017581119)"
0903171000,1142,,02119,Roxbury,,1,BONELL,TE,1 BONELL TE,"(42.3282173839932, -71.087116173669)"
0903172000,1149,,02119,Roxbury,,3,BONELL,TE,3 BONELL TE,"(42.3282624729562, -71.0871588998792)"
0903173000,1152,,02119,Roxbury,,5,BONELL,TE,5 BONELL TE,"(42.3283081227834, -71.0872036817092)"
0903174000,1172,,02119,Roxbury,,7,BONELL,TE,7 BONELL TE,"(42.3283499145972, -71.0872430859019)"
0903175000,1382,,02119,Roxbury,,,BONELL,TE,BONELL TE,"(42.32839377904, -71.0872217520644)"
0903168000,4089,,02119,Roxbury,,,WASHINGTON,ST,WASHINGTON ST,"(42.3282574299523, -71.0868447503267)"
0903169000,3951,,02119,Roxbury,,,ARCHER,TE,ARCHER TE,"(42.3283750508057, -71.0869503422099)"
1301146000,10718,,02125,Roxbury,,115 123,BIRD,ST,115 123 BIRD ST,"(42.3133192551007, -71.0714620434366)"
1301487000,5286,,02125,Dorchester,Residential Single Family,139,STOUGHTON,ST,139 STOUGHTON ST,"(42.3148315589594, -71.0607579487786)"
1403195000,4500,,02124,Mattapan,,1062 1068,BLUE HILL,AV,1062 1068 BLUE HILL AV,"(42.2879888180897, -71.0898958756875)"
1701741000,8558,,02124,Dorchester,Commercial,719,WASHINGTON,ST,719 WASHINGTON ST,"(42.2862438296665, -71.0714395801)"
1700592000,8930,,02124,Dorchester,Commercial,,SPENCER,ST,SPENCER ST,"(42.2917835347414, -71.0756134771411)"
1501294000,10778,,02122,Dorchester,,191,BOWDOIN,ST,191 BOWDOIN ST,"(42.304809418675, -71.0684855604583)"
0700028001,5896,,02127,South Boston,,,ALGER,ST,ALGER ST,"(42.3324068081969, -71.0590267872078)"
1700593000,15753,,02124,Dorchester,Commercial,270,TALBOT,AV,270 TALBOT AV,"(42.291487652197, -71.0755508950598)"
1300076000,4317,,02125,Roxbury,,5,HOWARD,PL,5 HOWARD PL,"(42.3202172746991, -71.0721786335685)"
1201261000,102533,,02119,Roxbury,Commercial,2430,WASHINGTON,ST,2430 WASHINGTON ST,"(42.3281016810014, -71.0853663978561)"
1810598000,24254,,02136,Hyde Park,,12 24,FAIRMOUNT,CT,12 24 FAIRMOUNT CT,"(42.2528930458662, -71.1197651033255)"
1401418000,18771,,02121,Dorchester,,22,BOWDOIN,ST,22 BOWDOIN ST,"(42.2999047095431, -71.0729850959064)"
1401419000,6871,,02121,Dorchester,,10 20,BOWDOIN,ST,10 20 BOWDOIN ST,"(42.2997377501853, -71.0730130894736)"
0703644000,120238,,02125,Dorchester,,65 73,E COTTAGE,ST,65 73 E COTTAGE ST,"(42.3205528189972, -71.0676153856093)"
1701534000,4000,,02124,Dorchester,,131,SOUTHERN,AV,131 SOUTHERN AV,"(42.289732976987, -71.0778724014435)"
1701534001,5943,,02124,Dorchester,,133,SOUTHERN,AV,133 SOUTHERN AV,"(42.2896699621686, -71.0780399765338)"
1102369000,6000,,02130,Roxbury,Residential Condo,52,MONTEBELLO,RD,52 MONTEBELLO RD,"(42.312348411005, -71.1006733388534)"
1102369002,831,,02130,Roxbury,Residential Condo,52,MONTEBELLO,RD,52 MONTEBELLO RD,"(42.312348411005, -71.1006733388534)"
1102369004,856,,02130,Roxbury,Residential Condo,52,MONTEBELLO,RD,52 MONTEBELLO RD,"(42.312348411005, -71.1006733388534)"
1102369006,856,,02130,Roxbury,Residential Condo,52,MONTEBELLO,RD,52 MONTEBELLO RD,"(42.312348411005, -71.1006733388534)"
1200492000,397,,02119,Roxbury,,,WARREN,ST,WARREN ST,"(42.3212293297341, -71.0815495803335)"
1200491000,2871,,02119,Roxbury,Commercial,290,WARREN,ST,290 WARREN ST,"(42.3209529729203, -71.0814731473079)"
1200491001,931,,02119,Roxbury,Commercial,284,WARREN,ST,284 WARREN ST,"(42.3210483716561, -71.0814965201261)"
1200491002,931,,02119,Roxbury,Commercial,282,WARREN,ST,282 WARREN ST,"(42.3210977007394, -71.0815090844052)"
1200491003,921,,02119,Roxbury,Commercial,280,WARREN,ST,280 WARREN ST,"(42.3211453168251, -71.0815285673986)"
1701860000,8142,,02124,Dorchester,,,PEACEVALE,RD,PEACEVALE RD,"(42.2866186933174, -71.0757395182372)"
1701794000,4032,,02124,Dorchester,,56 R,EDSON,ST,56 R EDSON ST,"(42.2855748322754, -71.0772033316902)"
1701795000,3890,,02124,Dorchester,,54,EDSON,ST,54 EDSON ST,"(42.2856801260879, -71.0772382961103)"
1701895000,4908,,02124,Dorchester,,30,MILTON,AV,30 MILTON AV,"(42.2861657496602, -71.078088459329)"
